{
"type": "FeatureCollection",
"name": "nature_zones",
"crs": { "type": "name", "properties": { "name": "urn:ogc:def:crs:OGC:1.3:CRS84" } },
"xy_coordinate_resolution": 1e-05,
"features": [
{ "type": "Feature", "properties": { "zone_id": "PR15-MANr", "area_id": "PR15", "area_name": "Palo Seco", "ecosystem": "mangrove", "action": "restore", "n_cells": 15, "area_km2": 548.1, "eco_ha": 35, "rationale": "Mangrove is thin or fragmented here but the coastal setting supports it and there are people and tourism assets behind it; replanting at the landward margin and restoring tidal flow is indicated." }, "geometry": { "type": "MultiPolygon", "coordinates": [ [ [ [ -82.512, 9.126 ], [ -82.515, 9.159 ], [ -82.546, 9.173 ], [ -82.549, 9.206 ], [ -82.52, 9.224 ], [ -82.523, 9.257 ], [ -82.494, 9.276 ], [ -82.462, 9.261 ], [ -82.459, 9.228 ], [ -82.428, 9.214 ], [ -82.425, 9.181 ], [ -82.454, 9.163 ], [ -82.451, 9.13 ], [ -82.48, 9.111 ], [ -82.512, 9.126 ] ] ], [ [ [ -82.476, 9.425 ], [ -82.479, 9.458 ], [ -82.511, 9.472 ], [ -82.54, 9.454 ], [ -82.571, 9.468 ], [ -82.574, 9.501 ], [ -82.545, 9.519 ], [ -82.513, 9.505 ], [ -82.484, 9.523 ], [ -82.453, 9.509 ], [ -82.424, 9.527 ], [ -82.392, 9.513 ], [ -82.389, 9.48 ], [ -82.357, 9.466 ], [ -82.354, 9.433 ], [ -82.323, 9.418 ], [ -82.32, 9.386 ], [ -82.349, 9.367 ], [ -82.346, 9.335 ], [ -82.314, 9.32 ], [ -82.311, 9.288 ], [ -82.341, 9.269 ], [ -82.372, 9.284 ], [ -82.401, 9.265 ], [ -82.433, 9.28 ], [ -82.436, 9.312 ], [ -82.407, 9.331 ], [ -82.41, 9.364 ], [ -82.381, 9.382 ], [ -82.383, 9.415 ], [ -82.415, 9.429 ], [ -82.444, 9.411 ], [ -82.476, 9.425 ] ] ], [ [ [ -82.261, 8.696 ], [ -82.264, 8.729 ], [ -82.235, 8.747 ], [ -82.238, 8.78 ], [ -82.209, 8.799 ], [ -82.177, 8.784 ], [ -82.174, 8.751 ], [ -82.203, 8.733 ], [ -82.2, 8.7 ], [ -82.229, 8.681 ], [ -82.261, 8.696 ] ] ] ] } },
{ "type": "Feature", "properties": { "zone_id": "PR15-REEp", "area_id": "PR15", "area_name": "Palo Seco", "ecosystem": "reef and shallow shelf", "action": "protect", "n_cells": 7, "area_km2": 255.3, "eco_ha": 17226, "rationale": "Shallow reef-capable habitat with little strict protection, in an area where snorkelling and diving are or could be the product." }, "geometry": { "type": "Polygon", "coordinates": [ [ [ -82.311, 9.288 ], [ -82.341, 9.269 ], [ -82.372, 9.284 ], [ -82.375, 9.316 ], [ -82.407, 9.331 ], [ -82.41, 9.364 ], [ -82.381, 9.382 ], [ -82.383, 9.415 ], [ -82.415, 9.429 ], [ -82.418, 9.462 ], [ -82.45, 9.476 ], [ -82.479, 9.458 ], [ -82.511, 9.472 ], [ -82.513, 9.505 ], [ -82.545, 9.519 ], [ -82.548, 9.552 ], [ -82.519, 9.57 ], [ -82.487, 9.556 ], [ -82.484, 9.523 ], [ -82.453, 9.509 ], [ -82.424, 9.527 ], [ -82.392, 9.513 ], [ -82.389, 9.48 ], [ -82.357, 9.466 ], [ -82.354, 9.433 ], [ -82.323, 9.418 ], [ -82.32, 9.386 ], [ -82.349, 9.367 ], [ -82.346, 9.335 ], [ -82.314, 9.32 ], [ -82.311, 9.288 ] ] ] } },
{ "type": "Feature", "properties": { "zone_id": "PR15-FORp", "area_id": "PR15", "area_name": "Palo Seco", "ecosystem": "forest", "action": "protect", "n_cells": 75, "area_km2": 2755.7, "eco_ha": 259406, "rationale": "Intact forest on slopes above settlements and visitor infrastructure; retaining cover is the low-cost option and it is also the attraction." }, "geometry": { "type": "MultiPolygon", "coordinates": [ [ [ [ -82.591, 8.972 ], [ -82.594, 9.005 ], [ -82.625, 9.019 ], [ -82.628, 9.052 ], [ -82.66, 9.066 ], [ -82.663, 9.099 ], [ -82.695, 9.114 ], [ -82.697, 9.147 ], [ -82.668, 9.165 ], [ -82.671, 9.198 ], [ -82.703, 9.212 ], [ -82.706, 9.245 ], [ -82.677, 9.263 ], [ -82.679, 9.296 ], [ -82.711, 9.31 ], [ -82.714, 9.343 ], [ -82.685, 9.362 ], [ -82.688, 9.394 ], [ -82.659, 9.413 ], [ -82.627, 9.399 ], [ -82.624, 9.366 ], [ -82.592, 9.351 ], [ -82.563, 9.37 ], [ -82.531, 9.355 ], [ -82.502, 9.374 ], [ -82.505, 9.406 ], [ -82.476, 9.425 ], [ -82.444, 9.411 ], [ -82.415, 9.429 ], [ -82.383, 9.415 ], [ -82.381, 9.382 ], [ -82.41, 9.364 ], [ -82.407, 9.331 ], [ -82.436, 9.312 ], [ -82.433, 9.28 ], [ -82.401, 9.265 ], [ -82.398, 9.232 ], [ -82.367, 9.218 ], [ -82.364, 9.185 ], [ -82.332, 9.171 ], [ -82.329, 9.138 ], [ -82.297, 9.124 ], [ -82.295, 9.091 ], [ -82.324, 9.072 ], [ -82.356, 9.087 ], [ -82.385, 9.068 ], [ -82.416, 9.083 ], [ -82.445, 9.064 ], [ -82.443, 9.031 ], [ -82.472, 9.013 ], [ -82.469, 8.98 ], [ -82.437, 8.966 ], [ -82.408, 8.984 ], [ -82.376, 8.97 ], [ -82.347, 8.988 ], [ -82.315, 8.974 ], [ -82.286, 8.992 ], [ -82.254, 8.978 ], [ -82.252, 8.945 ], [ -82.22, 8.93 ], [ -82.217, 8.898 ], [ -82.185, 8.883 ], [ -82.182, 8.85 ], [ -82.211, 8.832 ], [ -82.209, 8.799 ], [ -82.238, 8.78 ], [ -82.235, 8.747 ], [ -82.264, 8.729 ], [ -82.261, 8.696 ], [ -82.29, 8.677 ], [ -82.322, 8.692 ], [ -82.351, 8.673 ], [ -82.383, 8.688 ], [ -82.386, 8.721 ], [ -82.418, 8.735 ], [ -82.42, 8.768 ], [ -82.391, 8.787 ], [ -82.394, 8.819 ], [ -82.426, 8.834 ], [ -82.429, 8.867 ], [ -82.461, 8.881 ], [ -82.463, 8.914 ], [ -82.495, 8.929 ], [ -82.524, 8.91 ], [ -82.556, 8.925 ], [ -82.559, 8.957 ], [ -82.591, 8.972 ] ], [ [ -82.523, 9.257 ], [ -82.52, 9.224 ], [ -82.549, 9.206 ], [ -82.546, 9.173 ], [ -82.515, 9.159 ], [ -82.512, 9.126 ], [ -82.48, 9.111 ], [ -82.451, 9.13 ], [ -82.454, 9.163 ], [ -82.425, 9.181 ], [ -82.428, 9.214 ], [ -82.459, 9.228 ], [ -82.462, 9.261 ], [ -82.494, 9.276 ], [ -82.523, 9.257 ] ] ], [ [ [ -82.229, 8.681 ], [ -82.2, 8.7 ], [ -82.203, 8.733 ], [ -82.174, 8.751 ], [ -82.177, 8.784 ], [ -82.148, 8.803 ], [ -82.15, 8.836 ], [ -82.121, 8.854 ], [ -82.09, 8.84 ], [ -82.087, 8.807 ], [ -82.055, 8.792 ], [ -82.052, 8.759 ], [ -82.02, 8.745 ], [ -82.017, 8.712 ], [ -81.985, 8.697 ], [ -81.956, 8.716 ], [ -81.959, 8.749 ], [ -81.93, 8.767 ], [ -81.933, 8.8 ], [ -81.904, 8.819 ], [ -81.872, 8.804 ], [ -81.869, 8.771 ], [ -81.838, 8.757 ], [ -81.835, 8.724 ], [ -81.864, 8.705 ], [ -81.861, 8.672 ], [ -81.89, 8.654 ], [ -81.887, 8.621 ], [ -81.916, 8.602 ], [ -81.948, 8.617 ], [ -81.951, 8.65 ], [ -81.983, 8.664 ], [ -82.012, 8.646 ], [ -82.009, 8.613 ], [ -82.038, 8.594 ], [ -82.07, 8.609 ], [ -82.099, 8.59 ], [ -82.131, 8.605 ], [ -82.16, 8.586 ], [ -82.192, 8.601 ], [ -82.195, 8.634 ], [ -82.226, 8.648 ], [ -82.229, 8.681 ] ] ] ] } },
{ "type": "Feature", "properties": { "zone_id": "PR15-WETp", "area_id": "PR15", "area_name": "Palo Seco", "ecosystem": "wetland", "action": "protect", "n_cells": 7, "area_km2": 254.9, "eco_ha": 1970, "rationale": "Herbaceous wetland with water-regulation and birdlife value that is itself a visitor product." }, "geometry": { "type": "Polygon", "coordinates": [ [ [ -82.401, 9.265 ], [ -82.433, 9.28 ], [ -82.436, 9.312 ], [ -82.407, 9.331 ], [ -82.41, 9.364 ], [ -82.442, 9.378 ], [ -82.444, 9.411 ], [ -82.476, 9.425 ], [ -82.479, 9.458 ], [ -82.511, 9.472 ], [ -82.54, 9.454 ], [ -82.571, 9.468 ], [ -82.574, 9.501 ], [ -82.545, 9.519 ], [ -82.513, 9.505 ], [ -82.484, 9.523 ], [ -82.453, 9.509 ], [ -82.45, 9.476 ], [ -82.418, 9.462 ], [ -82.415, 9.429 ], [ -82.383, 9.415 ], [ -82.354, 9.433 ], [ -82.323, 9.418 ], [ -82.32, 9.386 ], [ -82.349, 9.367 ], [ -82.346, 9.335 ], [ -82.375, 9.316 ], [ -82.372, 9.284 ], [ -82.401, 9.265 ] ] ] } },
{ "type": "Feature", "properties": { "zone_id": "AD01-MANp", "area_id": "AD01", "area_name": "Ciudad de Panama - Taboga", "ecosystem": "mangrove", "action": "protect", "n_cells": 3, "area_km2": 109.5, "eco_ha": 939, "rationale": "Mangrove is present and functioning between open water and low-lying assets; protecting standing mangrove is cheaper and more certain than replanting it." }, "geometry": { "type": "MultiPolygon", "coordinates": [ [ [ [ -79.65, 8.893 ], [ -79.647, 8.86 ], [ -79.676, 8.841 ], [ -79.708, 8.856 ], [ -79.711, 8.889 ], [ -79.682, 8.907 ], [ -79.65, 8.893 ] ] ], [ [ [ -79.443, 8.954 ], [ -79.475, 8.969 ], [ -79.478, 9.002 ], [ -79.449, 9.02 ], [ -79.452, 9.053 ], [ -79.424, 9.071 ], [ -79.392, 9.056 ], [ -79.389, 9.024 ], [ -79.418, 9.005 ], [ -79.414, 8.973 ], [ -79.443, 8.954 ] ] ] ] } },
{ "type": "Feature", "properties": { "zone_id": "AD01-MANr", "area_id": "AD01", "area_name": "Ciudad de Panama - Taboga", "ecosystem": "mangrove", "action": "restore", "n_cells": 6, "area_km2": 218.7, "eco_ha": 79, "rationale": "Mangrove is thin or fragmented here but the coastal setting supports it and there are people and tourism assets behind it; replanting at the landward margin and restoring tidal flow is indicated." }, "geometry": { "type": "Polygon", "coordinates": [ [ [ -79.581, 8.797 ], [ -79.612, 8.812 ], [ -79.616, 8.845 ], [ -79.647, 8.86 ], [ -79.65, 8.893 ], [ -79.622, 8.911 ], [ -79.625, 8.944 ], [ -79.596, 8.962 ], [ -79.564, 8.947 ], [ -79.535, 8.965 ], [ -79.539, 8.998 ], [ -79.51, 9.016 ], [ -79.478, 9.002 ], [ -79.475, 8.969 ], [ -79.504, 8.951 ], [ -79.501, 8.918 ], [ -79.529, 8.9 ], [ -79.526, 8.867 ], [ -79.555, 8.849 ], [ -79.552, 8.816 ], [ -79.581, 8.797 ] ] ] } },
{ "type": "Feature", "properties": { "zone_id": "AD01-REEp", "area_id": "AD01", "area_name": "Ciudad de Panama - Taboga", "ecosystem": "reef and shallow shelf", "action": "protect", "n_cells": 7, "area_km2": 255.2, "eco_ha": 20090, "rationale": "Shallow reef-capable habitat with little strict protection, in an area where snorkelling and diving are or could be the product." }, "geometry": { "type": "Polygon", "coordinates": [ [ [ -79.552, 8.816 ], [ -79.581, 8.797 ], [ -79.612, 8.812 ], [ -79.616, 8.845 ], [ -79.647, 8.86 ], [ -79.676, 8.841 ], [ -79.708, 8.856 ], [ -79.711, 8.889 ], [ -79.682, 8.907 ], [ -79.65, 8.893 ], [ -79.622, 8.911 ], [ -79.59, 8.896 ], [ -79.561, 8.914 ], [ -79.564, 8.947 ], [ -79.535, 8.965 ], [ -79.539, 8.998 ], [ -79.51, 9.016 ], [ -79.478, 9.002 ], [ -79.449, 9.02 ], [ -79.418, 9.005 ], [ -79.414, 8.973 ], [ -79.443, 8.954 ], [ -79.475, 8.969 ], [ -79.504, 8.951 ], [ -79.501, 8.918 ], [ -79.529, 8.9 ], [ -79.526, 8.867 ], [ -79.555, 8.849 ], [ -79.552, 8.816 ] ] ] } },
{ "type": "Feature", "properties": { "zone_id": "AD01-FORp", "area_id": "AD01", "area_name": "Ciudad de Panama - Taboga", "ecosystem": "forest", "action": "protect", "n_cells": 9, "area_km2": 326.6, "eco_ha": 26627, "rationale": "Intact forest on slopes above settlements and visitor infrastructure; retaining cover is the low-cost option and it is also the attraction." }, "geometry": { "type": "MultiPolygon", "coordinates": [ [ [ [ -79.682, 8.907 ], [ -79.685, 8.94 ], [ -79.657, 8.958 ], [ -79.66, 8.991 ], [ -79.631, 9.009 ], [ -79.599, 8.995 ], [ -79.596, 8.962 ], [ -79.625, 8.944 ], [ -79.622, 8.911 ], [ -79.65, 8.893 ], [ -79.682, 8.907 ] ] ], [ [ [ -79.539, 8.998 ], [ -79.57, 9.013 ], [ -79.573, 9.046 ], [ -79.605, 9.06 ], [ -79.608, 9.093 ], [ -79.64, 9.108 ], [ -79.643, 9.14 ], [ -79.615, 9.159 ], [ -79.583, 9.144 ], [ -79.554, 9.162 ], [ -79.522, 9.148 ], [ -79.493, 9.166 ], [ -79.462, 9.151 ], [ -79.433, 9.169 ], [ -79.401, 9.155 ], [ -79.373, 9.173 ], [ -79.341, 9.158 ], [ -79.338, 9.125 ], [ -79.366, 9.107 ], [ -79.398, 9.122 ], [ -79.427, 9.104 ], [ -79.459, 9.118 ], [ -79.487, 9.1 ], [ -79.519, 9.115 ], [ -79.548, 9.097 ], [ -79.545, 9.064 ], [ -79.513, 9.049 ], [ -79.51, 9.016 ], [ -79.539, 8.998 ] ] ] ] } },
{ "type": "Feature", "properties": { "zone_id": "PR18-FORp", "area_id": "PR18", "area_name": "Alto Darién", "ecosystem": "forest", "action": "protect", "n_cells": 20, "area_km2": 730.5, "eco_ha": 72855, "rationale": "Intact forest on slopes above settlements and visitor infrastructure; retaining cover is the low-cost option and it is also the attraction." }, "geometry": { "type": "Polygon", "coordinates": [ [ [ -77.685, 8.36 ], [ -77.656, 8.378 ], [ -77.66, 8.411 ], [ -77.631, 8.429 ], [ -77.635, 8.462 ], [ -77.666, 8.477 ], [ -77.669, 8.509 ], [ -77.641, 8.528 ], [ -77.644, 8.56 ], [ -77.616, 8.579 ], [ -77.619, 8.611 ], [ -77.651, 8.626 ], [ -77.679, 8.608 ], [ -77.711, 8.623 ], [ -77.714, 8.656 ], [ -77.746, 8.671 ], [ -77.749, 8.704 ], [ -77.721, 8.722 ], [ -77.724, 8.754 ], [ -77.756, 8.769 ], [ -77.759, 8.802 ], [ -77.731, 8.82 ], [ -77.699, 8.805 ], [ -77.695, 8.773 ], [ -77.664, 8.758 ], [ -77.635, 8.776 ], [ -77.604, 8.761 ], [ -77.6, 8.728 ], [ -77.569, 8.713 ], [ -77.565, 8.681 ], [ -77.534, 8.666 ], [ -77.53, 8.633 ], [ -77.499, 8.618 ], [ -77.495, 8.585 ], [ -77.464, 8.57 ], [ -77.46, 8.537 ], [ -77.489, 8.519 ], [ -77.521, 8.534 ], [ -77.549, 8.516 ], [ -77.546, 8.483 ], [ -77.574, 8.465 ], [ -77.571, 8.432 ], [ -77.599, 8.414 ], [ -77.596, 8.381 ], [ -77.625, 8.363 ], [ -77.621, 8.33 ], [ -77.59, 8.315 ], [ -77.586, 8.282 ], [ -77.615, 8.264 ], [ -77.647, 8.279 ], [ -77.65, 8.312 ], [ -77.682, 8.327 ], [ -77.685, 8.36 ] ] ] } },
{ "type": "Feature", "properties": { "zone_id": "AD03-REEp", "area_id": "AD03", "area_name": "Riviera Pacifica - Valle de Anton - El Cope - Penonome", "ecosystem": "reef and shallow shelf", "action": "protect", "n_cells": 2, "area_km2": 73.9, "eco_ha": 4216, "rationale": "Shallow reef-capable habitat with little strict protection, in an area where snorkelling and diving are or could be the product." }, "geometry": { "type": "Polygon", "coordinates": [ [ [ -79.914, 8.446 ], [ -79.943, 8.428 ], [ -79.975, 8.442 ], [ -79.978, 8.475 ], [ -79.949, 8.494 ], [ -79.952, 8.527 ], [ -79.923, 8.545 ], [ -79.891, 8.53 ], [ -79.888, 8.497 ], [ -79.917, 8.479 ], [ -79.914, 8.446 ] ] ] } },
{ "type": "Feature", "properties": { "zone_id": "AD03-FORp", "area_id": "AD03", "area_name": "Riviera Pacifica - Valle de Anton - El Cope - Penonome", "ecosystem": "forest", "action": "protect", "n_cells": 10, "area_km2": 368.0, "eco_ha": 27790, "rationale": "Intact forest on slopes above settlements and visitor infrastructure; retaining cover is the low-cost option and it is also the attraction." }, "geometry": { "type": "Polygon", "coordinates": [ [ [ -79.978, 8.475 ], [ -80.01, 8.49 ], [ -80.013, 8.523 ], [ -80.044, 8.538 ], [ -80.073, 8.519 ], [ -80.105, 8.534 ], [ -80.108, 8.567 ], [ -80.14, 8.582 ], [ -80.169, 8.563 ], [ -80.201, 8.578 ], [ -80.204, 8.611 ], [ -80.175, 8.629 ], [ -80.178, 8.662 ], [ -80.149, 8.681 ], [ -80.117, 8.666 ], [ -80.114, 8.633 ], [ -80.082, 8.618 ], [ -80.054, 8.637 ], [ -80.057, 8.67 ], [ -80.028, 8.688 ], [ -79.996, 8.673 ], [ -79.967, 8.692 ], [ -79.935, 8.677 ], [ -79.906, 8.695 ], [ -79.875, 8.681 ], [ -79.871, 8.648 ], [ -79.9, 8.629 ], [ -79.932, 8.644 ], [ -79.961, 8.626 ], [ -79.993, 8.64 ], [ -80.022, 8.622 ], [ -80.019, 8.589 ], [ -79.987, 8.574 ], [ -79.984, 8.541 ], [ -79.952, 8.527 ], [ -79.949, 8.494 ], [ -79.978, 8.475 ] ] ] } },
{ "type": "Feature", "properties": { "zone_id": "PR17-FORp", "area_id": "PR17", "area_name": "Riviera Pacifica - Valle de Anton - El Cope - Penonome (Antón)", "ecosystem": "forest", "action": "protect", "n_cells": 14, "area_km2": 516.3, "eco_ha": 39895, "rationale": "Intact forest on slopes above settlements and visitor infrastructure; retaining cover is the low-cost option and it is also the attraction." }, "geometry": { "type": "Polygon", "coordinates": [ [ [ -80.438, 8.497 ], [ -80.47, 8.512 ], [ -80.473, 8.545 ], [ -80.505, 8.559 ], [ -80.508, 8.592 ], [ -80.479, 8.611 ], [ -80.482, 8.644 ], [ -80.453, 8.662 ], [ -80.421, 8.647 ], [ -80.392, 8.666 ], [ -80.36, 8.651 ], [ -80.357, 8.618 ], [ -80.325, 8.604 ], [ -80.296, 8.622 ], [ -80.265, 8.607 ], [ -80.236, 8.626 ], [ -80.204, 8.611 ], [ -80.201, 8.578 ], [ -80.169, 8.563 ], [ -80.14, 8.582 ], [ -80.108, 8.567 ], [ -80.105, 8.534 ], [ -80.073, 8.519 ], [ -80.044, 8.538 ], [ -80.013, 8.523 ], [ -80.01, 8.49 ], [ -80.038, 8.472 ], [ -80.07, 8.486 ], [ -80.099, 8.468 ], [ -80.131, 8.483 ], [ -80.16, 8.464 ], [ -80.192, 8.479 ], [ -80.195, 8.512 ], [ -80.227, 8.527 ], [ -80.23, 8.56 ], [ -80.262, 8.574 ], [ -80.29, 8.556 ], [ -80.287, 8.523 ], [ -80.316, 8.504 ], [ -80.348, 8.519 ], [ -80.351, 8.552 ], [ -80.383, 8.567 ], [ -80.412, 8.548 ], [ -80.409, 8.515 ], [ -80.438, 8.497 ] ] ] } },
{ "type": "Feature", "properties": { "zone_id": "IN05-FORp", "area_id": "IN05", "area_name": "Müna", "ecosystem": "forest", "action": "protect", "n_cells": 15, "area_km2": 556.3, "eco_ha": 43862, "rationale": "Intact forest on slopes above settlements and visitor infrastructure; retaining cover is the low-cost option and it is also the attraction." }, "geometry": { "type": "Polygon", "coordinates": [ [ [ -81.795, 8.261 ], [ -81.826, 8.275 ], [ -81.829, 8.308 ], [ -81.861, 8.323 ], [ -81.89, 8.304 ], [ -81.922, 8.319 ], [ -81.925, 8.352 ], [ -81.957, 8.367 ], [ -81.96, 8.4 ], [ -81.931, 8.418 ], [ -81.899, 8.404 ], [ -81.87, 8.422 ], [ -81.838, 8.408 ], [ -81.809, 8.426 ], [ -81.777, 8.412 ], [ -81.748, 8.43 ], [ -81.716, 8.416 ], [ -81.713, 8.383 ], [ -81.681, 8.368 ], [ -81.652, 8.387 ], [ -81.62, 8.372 ], [ -81.618, 8.339 ], [ -81.585, 8.324 ], [ -81.583, 8.291 ], [ -81.551, 8.277 ], [ -81.548, 8.243 ], [ -81.577, 8.225 ], [ -81.609, 8.239 ], [ -81.638, 8.221 ], [ -81.67, 8.236 ], [ -81.673, 8.269 ], [ -81.705, 8.283 ], [ -81.734, 8.265 ], [ -81.766, 8.279 ], [ -81.795, 8.261 ] ] ] } },
{ "type": "Feature", "properties": { "zone_id": "PR16-FORp", "area_id": "PR16", "area_name": "Narganá", "ecosystem": "forest", "action": "protect", "n_cells": 9, "area_km2": 325.6, "eco_ha": 30998, "rationale": "Intact forest on slopes above settlements and visitor infrastructure; retaining cover is the low-cost option and it is also the attraction." }, "geometry": { "type": "Polygon", "coordinates": [ [ [ -79.048, 9.274 ], [ -79.08, 9.288 ], [ -79.083, 9.321 ], [ -79.115, 9.335 ], [ -79.118, 9.368 ], [ -79.089, 9.386 ], [ -79.092, 9.419 ], [ -79.064, 9.437 ], [ -79.032, 9.422 ], [ -79.003, 9.44 ], [ -78.971, 9.426 ], [ -78.943, 9.444 ], [ -78.911, 9.429 ], [ -78.908, 9.396 ], [ -78.876, 9.382 ], [ -78.873, 9.349 ], [ -78.841, 9.335 ], [ -78.838, 9.302 ], [ -78.867, 9.284 ], [ -78.898, 9.299 ], [ -78.927, 9.28 ], [ -78.959, 9.295 ], [ -78.962, 9.328 ], [ -78.933, 9.346 ], [ -78.936, 9.379 ], [ -78.968, 9.393 ], [ -78.997, 9.375 ], [ -78.994, 9.342 ], [ -79.022, 9.324 ], [ -79.019, 9.292 ], [ -79.048, 9.274 ] ] ] } },
{ "type": "Feature", "properties": { "zone_id": "IN06-FORp", "area_id": "IN06", "area_name": "Cuenca del Río Santa María", "ecosystem": "forest", "action": "protect", "n_cells": 7, "area_km2": 259.9, "eco_ha": 18363, "rationale": "Intact forest on slopes above settlements and visitor infrastructure; retaining cover is the low-cost option and it is also the attraction." }, "geometry": { "type": "MultiPolygon", "coordinates": [ [ [ [ -81.182, 8.267 ], [ -81.211, 8.248 ], [ -81.243, 8.263 ], [ -81.246, 8.296 ], [ -81.217, 8.315 ], [ -81.185, 8.3 ], [ -81.182, 8.267 ] ] ], [ [ [ -81.121, 8.271 ], [ -81.124, 8.304 ], [ -81.095, 8.323 ], [ -81.098, 8.356 ], [ -81.13, 8.37 ], [ -81.133, 8.403 ], [ -81.104, 8.422 ], [ -81.072, 8.407 ], [ -81.043, 8.426 ], [ -81.011, 8.411 ], [ -81.008, 8.378 ], [ -80.976, 8.363 ], [ -80.973, 8.33 ], [ -81.002, 8.312 ], [ -81.034, 8.326 ], [ -81.063, 8.308 ], [ -81.06, 8.275 ], [ -81.089, 8.256 ], [ -81.121, 8.271 ] ] ], [ [ [ -81.168, 8.451 ], [ -81.2, 8.466 ], [ -81.203, 8.499 ], [ -81.174, 8.517 ], [ -81.142, 8.503 ], [ -81.139, 8.47 ], [ -81.168, 8.451 ] ] ] ] } },
{ "type": "Feature", "properties": { "zone_id": "PR20-FORp", "area_id": "PR20", "area_name": "Tierras Altas - Renacimiento", "ecosystem": "forest", "action": "protect", "n_cells": 5, "area_km2": 184.3, "eco_ha": 13030, "rationale": "Intact forest on slopes above settlements and visitor infrastructure; retaining cover is the low-cost option and it is also the attraction." }, "geometry": { "type": "MultiPolygon", "coordinates": [ [ [ [ -82.566, 8.675 ], [ -82.595, 8.657 ], [ -82.627, 8.671 ], [ -82.629, 8.704 ], [ -82.6, 8.723 ], [ -82.569, 8.708 ], [ -82.566, 8.675 ] ] ], [ [ [ -82.444, 8.684 ], [ -82.473, 8.665 ], [ -82.505, 8.68 ], [ -82.508, 8.713 ], [ -82.478, 8.731 ], [ -82.447, 8.716 ], [ -82.444, 8.684 ] ] ], [ [ [ -82.844, 8.706 ], [ -82.847, 8.739 ], [ -82.818, 8.758 ], [ -82.786, 8.743 ], [ -82.757, 8.762 ], [ -82.725, 8.748 ], [ -82.722, 8.715 ], [ -82.751, 8.696 ], [ -82.783, 8.71 ], [ -82.812, 8.692 ], [ -82.844, 8.706 ] ] ], [ [ [ -82.699, 8.799 ], [ -82.731, 8.814 ], [ -82.733, 8.847 ], [ -82.704, 8.865 ], [ -82.672, 8.851 ], [ -82.67, 8.818 ], [ -82.699, 8.799 ] ] ] ] } },
{ "type": "Feature", "properties": { "zone_id": "AD02-MANp", "area_id": "AD02", "area_name": "Bocas del Toro", "ecosystem": "mangrove", "action": "protect", "n_cells": 4, "area_km2": 145.1, "eco_ha": 549, "rationale": "Mangrove is present and functioning between open water and low-lying assets; protecting standing mangrove is cheaper and more certain than replanting it." }, "geometry": { "type": "Polygon", "coordinates": [ [ [ -82.311, 9.288 ], [ -82.314, 9.32 ], [ -82.285, 9.339 ], [ -82.288, 9.371 ], [ -82.259, 9.39 ], [ -82.227, 9.375 ], [ -82.225, 9.343 ], [ -82.193, 9.328 ], [ -82.164, 9.347 ], [ -82.132, 9.332 ], [ -82.129, 9.3 ], [ -82.158, 9.281 ], [ -82.19, 9.296 ], [ -82.219, 9.277 ], [ -82.251, 9.292 ], [ -82.28, 9.273 ], [ -82.311, 9.288 ] ] ] } },
{ "type": "Feature", "properties": { "zone_id": "AD02-MANr", "area_id": "AD02", "area_name": "Bocas del Toro", "ecosystem": "mangrove", "action": "restore", "n_cells": 2, "area_km2": 73.0, "eco_ha": 0, "rationale": "Mangrove is thin or fragmented here but the coastal setting supports it and there are people and tourism assets behind it; replanting at the landward margin and restoring tidal flow is indicated." }, "geometry": { "type": "Polygon", "coordinates": [ [ [ -82.285, 9.339 ], [ -82.314, 9.32 ], [ -82.346, 9.335 ], [ -82.349, 9.367 ], [ -82.32, 9.386 ], [ -82.323, 9.418 ], [ -82.294, 9.437 ], [ -82.262, 9.422 ], [ -82.259, 9.39 ], [ -82.288, 9.371 ], [ -82.285, 9.339 ] ] ] } },
{ "type": "Feature", "properties": { "zone_id": "AD02-REEp", "area_id": "AD02", "area_name": "Bocas del Toro", "ecosystem": "reef and shallow shelf", "action": "protect", "n_cells": 5, "area_km2": 181.6, "eco_ha": 14379, "rationale": "Shallow reef-capable habitat with little strict protection, in an area where snorkelling and diving are or could be the product." }, "geometry": { "type": "Polygon", "coordinates": [ [ [ -82.311, 9.288 ], [ -82.314, 9.32 ], [ -82.346, 9.335 ], [ -82.349, 9.367 ], [ -82.32, 9.386 ], [ -82.288, 9.371 ], [ -82.259, 9.39 ], [ -82.227, 9.375 ], [ -82.198, 9.394 ], [ -82.166, 9.379 ], [ -82.164, 9.347 ], [ -82.193, 9.328 ], [ -82.19, 9.296 ], [ -82.219, 9.277 ], [ -82.251, 9.292 ], [ -82.28, 9.273 ], [ -82.311, 9.288 ] ] ] } },
{ "type": "Feature", "properties": { "zone_id": "AD02-WETp", "area_id": "AD02", "area_name": "Bocas del Toro", "ecosystem": "wetland", "action": "protect", "n_cells": 2, "area_km2": 72.7, "eco_ha": 198, "rationale": "Herbaceous wetland with water-regulation and birdlife value that is itself a visitor product." }, "geometry": { "type": "Polygon", "coordinates": [ [ [ -82.227, 9.375 ], [ -82.225, 9.343 ], [ -82.254, 9.324 ], [ -82.285, 9.339 ], [ -82.288, 9.371 ], [ -82.32, 9.386 ], [ -82.323, 9.418 ], [ -82.294, 9.437 ], [ -82.262, 9.422 ], [ -82.259, 9.39 ], [ -82.227, 9.375 ] ] ] } },
{ "type": "Feature", "properties": { "zone_id": "AD04-FORp", "area_id": "AD04", "area_name": "Boquete", "ecosystem": "forest", "action": "protect", "n_cells": 5, "area_km2": 184.2, "eco_ha": 15591, "rationale": "Intact forest on slopes above settlements and visitor infrastructure; retaining cover is the low-cost option and it is also the attraction." }, "geometry": { "type": "Polygon", "coordinates": [ [ [ -82.54, 8.727 ], [ -82.542, 8.76 ], [ -82.513, 8.778 ], [ -82.516, 8.811 ], [ -82.487, 8.83 ], [ -82.49, 8.863 ], [ -82.461, 8.881 ], [ -82.429, 8.867 ], [ -82.426, 8.834 ], [ -82.394, 8.819 ], [ -82.391, 8.787 ], [ -82.42, 8.768 ], [ -82.418, 8.735 ], [ -82.447, 8.716 ], [ -82.478, 8.731 ], [ -82.508, 8.713 ], [ -82.54, 8.727 ] ] ] } },
{ "type": "Feature", "properties": { "zone_id": "IN08-MANp", "area_id": "IN08", "area_name": "Bahía de Chame", "ecosystem": "mangrove", "action": "protect", "n_cells": 4, "area_km2": 146.5, "eco_ha": 1948, "rationale": "Mangrove is present and functioning between open water and low-lying assets; protecting standing mangrove is cheaper and more certain than replanting it." }, "geometry": { "type": "Polygon", "coordinates": [ [ [ -79.75, 8.655 ], [ -79.779, 8.637 ], [ -79.811, 8.651 ], [ -79.814, 8.684 ], [ -79.846, 8.699 ], [ -79.849, 8.732 ], [ -79.82, 8.75 ], [ -79.823, 8.783 ], [ -79.794, 8.801 ], [ -79.763, 8.787 ], [ -79.759, 8.754 ], [ -79.728, 8.739 ], [ -79.725, 8.706 ], [ -79.753, 8.688 ], [ -79.75, 8.655 ] ] ] } },
{ "type": "Feature", "properties": { "zone_id": "IN08-REEp", "area_id": "IN08", "area_name": "Bahía de Chame", "ecosystem": "reef and shallow shelf", "action": "protect", "n_cells": 3, "area_km2": 109.9, "eco_ha": 7423, "rationale": "Shallow reef-capable habitat with little strict protection, in an area where snorkelling and diving are or could be the product." }, "geometry": { "type": "Polygon", "coordinates": [ [ [ -79.75, 8.655 ], [ -79.779, 8.637 ], [ -79.811, 8.651 ], [ -79.814, 8.684 ], [ -79.785, 8.703 ], [ -79.788, 8.736 ], [ -79.759, 8.754 ], [ -79.763, 8.787 ], [ -79.734, 8.805 ], [ -79.702, 8.79 ], [ -79.699, 8.757 ], [ -79.728, 8.739 ], [ -79.725, 8.706 ], [ -79.753, 8.688 ], [ -79.75, 8.655 ] ] ] } },
{ "type": "Feature", "properties": { "zone_id": "IN08-FORr", "area_id": "IN08", "area_name": "Bahía de Chame", "ecosystem": "forest", "action": "restore", "n_cells": 2, "area_km2": 73.3, "eco_ha": 1178, "rationale": "Cleared or degraded slopes in the same catchment as the destination; replanting targets erosion, dry-season flow and the visual quality of the landscape." }, "geometry": { "type": "Polygon", "coordinates": [ [ [ -79.75, 8.655 ], [ -79.779, 8.637 ], [ -79.811, 8.651 ], [ -79.814, 8.684 ], [ -79.785, 8.703 ], [ -79.788, 8.736 ], [ -79.759, 8.754 ], [ -79.728, 8.739 ], [ -79.725, 8.706 ], [ -79.753, 8.688 ], [ -79.75, 8.655 ] ] ] } },
{ "type": "Feature", "properties": { "zone_id": "PR19-MANp", "area_id": "PR19", "area_name": "Aguadulce-Natá", "ecosystem": "mangrove", "action": "protect", "n_cells": 3, "area_km2": 111.0, "eco_ha": 3321, "rationale": "Mangrove is present and functioning between open water and low-lying assets; protecting standing mangrove is cheaper and more certain than replanting it." }, "geometry": { "type": "Polygon", "coordinates": [ [ [ -80.469, 8.162 ], [ -80.498, 8.144 ], [ -80.53, 8.158 ], [ -80.532, 8.191 ], [ -80.504, 8.21 ], [ -80.507, 8.243 ], [ -80.478, 8.261 ], [ -80.481, 8.295 ], [ -80.452, 8.313 ], [ -80.42, 8.299 ], [ -80.417, 8.265 ], [ -80.446, 8.247 ], [ -80.443, 8.214 ], [ -80.472, 8.195 ], [ -80.469, 8.162 ] ] ] } },
{ "type": "Feature", "properties": { "zone_id": "PR19-REEp", "area_id": "PR19", "area_name": "Aguadulce-Natá", "ecosystem": "reef and shallow shelf", "action": "protect", "n_cells": 3, "area_km2": 111.5, "eco_ha": 8609, "rationale": "Shallow reef-capable habitat with little strict protection, in an area where snorkelling and diving are or could be the product." }, "geometry": { "type": "Polygon", "coordinates": [ [ [ -80.408, 8.166 ], [ -80.437, 8.147 ], [ -80.469, 8.162 ], [ -80.472, 8.195 ], [ -80.504, 8.21 ], [ -80.507, 8.243 ], [ -80.478, 8.261 ], [ -80.446, 8.247 ], [ -80.417, 8.265 ], [ -80.385, 8.251 ], [ -80.382, 8.217 ], [ -80.411, 8.199 ], [ -80.408, 8.166 ] ] ] } },
{ "type": "Feature", "properties": { "zone_id": "PR19-WETp", "area_id": "PR19", "area_name": "Aguadulce-Natá", "ecosystem": "wetland", "action": "protect", "n_cells": 3, "area_km2": 111.0, "eco_ha": 691, "rationale": "Herbaceous wetland with water-regulation and birdlife value that is itself a visitor product." }, "geometry": { "type": "Polygon", "coordinates": [ [ [ -80.469, 8.162 ], [ -80.498, 8.144 ], [ -80.53, 8.158 ], [ -80.532, 8.191 ], [ -80.504, 8.21 ], [ -80.507, 8.243 ], [ -80.478, 8.261 ], [ -80.481, 8.295 ], [ -80.452, 8.313 ], [ -80.42, 8.299 ], [ -80.417, 8.265 ], [ -80.446, 8.247 ], [ -80.443, 8.214 ], [ -80.472, 8.195 ], [ -80.469, 8.162 ] ] ] } },
{ "type": "Feature", "properties": { "zone_id": "MA11-MANp", "area_id": "MA11", "area_name": "Humedal de Bahía de Panamá", "ecosystem": "mangrove", "action": "protect", "n_cells": 6, "area_km2": 218.1, "eco_ha": 4780, "rationale": "Mangrove is present and functioning between open water and low-lying assets; protecting standing mangrove is cheaper and more certain than replanting it." }, "geometry": { "type": "MultiPolygon", "coordinates": [ [ [ [ -79.233, 8.983 ], [ -79.236, 9.016 ], [ -79.207, 9.034 ], [ -79.176, 9.019 ], [ -79.147, 9.037 ], [ -79.15, 9.07 ], [ -79.121, 9.088 ], [ -79.09, 9.074 ], [ -79.086, 9.041 ], [ -79.055, 9.026 ], [ -79.052, 8.993 ], [ -79.08, 8.975 ], [ -79.112, 8.99 ], [ -79.141, 8.972 ], [ -79.172, 8.986 ], [ -79.201, 8.968 ], [ -79.233, 8.983 ] ] ], [ [ [ -79.389, 9.024 ], [ -79.392, 9.056 ], [ -79.363, 9.074 ], [ -79.331, 9.06 ], [ -79.303, 9.078 ], [ -79.271, 9.063 ], [ -79.268, 9.03 ], [ -79.296, 9.012 ], [ -79.328, 9.027 ], [ -79.357, 9.009 ], [ -79.389, 9.024 ] ] ] ] } },
{ "type": "Feature", "properties": { "zone_id": "MA11-MANr", "area_id": "MA11", "area_name": "Humedal de Bahía de Panamá", "ecosystem": "mangrove", "action": "restore", "n_cells": 2, "area_km2": 73.3, "eco_ha": 45, "rationale": "Mangrove is thin or fragmented here but the coastal setting supports it and there are people and tourism assets behind it; replanting at the landward margin and restoring tidal flow is indicated." }, "geometry": { "type": "Polygon", "coordinates": [ [ [ -79.383, 8.958 ], [ -79.414, 8.973 ], [ -79.418, 9.005 ], [ -79.389, 9.024 ], [ -79.357, 9.009 ], [ -79.328, 9.027 ], [ -79.296, 9.012 ], [ -79.293, 8.979 ], [ -79.322, 8.961 ], [ -79.354, 8.976 ], [ -79.383, 8.958 ] ] ] } },
{ "type": "Feature", "properties": { "zone_id": "MA11-WETp", "area_id": "MA11", "area_name": "Humedal de Bahía de Panamá", "ecosystem": "wetland", "action": "protect", "n_cells": 5, "area_km2": 181.8, "eco_ha": 957, "rationale": "Herbaceous wetland with water-regulation and birdlife value that is itself a visitor product." }, "geometry": { "type": "Polygon", "coordinates": [ [ [ -79.389, 9.024 ], [ -79.392, 9.056 ], [ -79.363, 9.074 ], [ -79.331, 9.06 ], [ -79.303, 9.078 ], [ -79.271, 9.063 ], [ -79.242, 9.081 ], [ -79.21, 9.067 ], [ -79.182, 9.085 ], [ -79.15, 9.07 ], [ -79.121, 9.088 ], [ -79.09, 9.074 ], [ -79.086, 9.041 ], [ -79.115, 9.023 ], [ -79.147, 9.037 ], [ -79.176, 9.019 ], [ -79.207, 9.034 ], [ -79.236, 9.016 ], [ -79.268, 9.03 ], [ -79.296, 9.012 ], [ -79.328, 9.027 ], [ -79.357, 9.009 ], [ -79.389, 9.024 ] ] ] } },
{ "type": "Feature", "properties": { "zone_id": "MA12-FORp", "area_id": "MA12", "area_name": "La Amistad", "ecosystem": "forest", "action": "protect", "n_cells": 7, "area_km2": 257.3, "eco_ha": 23099, "rationale": "Intact forest on slopes above settlements and visitor infrastructure; retaining cover is the low-cost option and it is also the attraction." }, "geometry": { "type": "Polygon", "coordinates": [ [ [ -82.569, 8.708 ], [ -82.6, 8.723 ], [ -82.603, 8.756 ], [ -82.574, 8.774 ], [ -82.577, 8.807 ], [ -82.548, 8.826 ], [ -82.551, 8.859 ], [ -82.582, 8.873 ], [ -82.612, 8.855 ], [ -82.609, 8.822 ], [ -82.638, 8.803 ], [ -82.67, 8.818 ], [ -82.672, 8.851 ], [ -82.704, 8.865 ], [ -82.707, 8.898 ], [ -82.678, 8.916 ], [ -82.646, 8.902 ], [ -82.617, 8.921 ], [ -82.585, 8.906 ], [ -82.556, 8.925 ], [ -82.524, 8.91 ], [ -82.522, 8.877 ], [ -82.49, 8.863 ], [ -82.487, 8.83 ], [ -82.516, 8.811 ], [ -82.513, 8.778 ], [ -82.542, 8.76 ], [ -82.54, 8.727 ], [ -82.569, 8.708 ] ] ] } },
{ "type": "Feature", "properties": { "zone_id": "IN07-FORp", "area_id": "IN07", "area_name": "Altos de Campana", "ecosystem": "forest", "action": "protect", "n_cells": 4, "area_km2": 146.6, "eco_ha": 12778, "rationale": "Intact forest on slopes above settlements and visitor infrastructure; retaining cover is the low-cost option and it is also the attraction." }, "geometry": { "type": "Polygon", "coordinates": [ [ [ -80.088, 8.684 ], [ -80.091, 8.717 ], [ -80.063, 8.736 ], [ -80.066, 8.768 ], [ -80.037, 8.787 ], [ -80.005, 8.772 ], [ -79.976, 8.79 ], [ -79.944, 8.776 ], [ -79.941, 8.743 ], [ -79.97, 8.725 ], [ -79.967, 8.692 ], [ -79.996, 8.673 ], [ -80.028, 8.688 ], [ -80.057, 8.67 ], [ -80.088, 8.684 ] ] ] } },
{ "type": "Feature", "properties": { "zone_id": "IN09-REEp", "area_id": "IN09", "area_name": "San Lorenzo", "ecosystem": "reef and shallow shelf", "action": "protect", "n_cells": 2, "area_km2": 71.9, "eco_ha": 2372, "rationale": "Shallow reef-capable habitat with little strict protection, in an area where snorkelling and diving are or could be the product." }, "geometry": { "type": "Polygon", "coordinates": [ [ [ -79.904, 9.323 ], [ -79.901, 9.29 ], [ -79.929, 9.272 ], [ -79.961, 9.286 ], [ -79.964, 9.319 ], [ -79.996, 9.334 ], [ -79.999, 9.366 ], [ -79.97, 9.384 ], [ -79.939, 9.37 ], [ -79.935, 9.337 ], [ -79.904, 9.323 ] ] ] } },
{ "type": "Feature", "properties": { "zone_id": "MA10-FORp", "area_id": "MA10", "area_name": "Portobelo", "ecosystem": "forest", "action": "protect", "n_cells": 7, "area_km2": 253.0, "eco_ha": 21192, "rationale": "Intact forest on slopes above settlements and visitor infrastructure; retaining cover is the low-cost option and it is also the attraction." }, "geometry": { "type": "Polygon", "coordinates": [ [ [ -79.541, 9.344 ], [ -79.572, 9.358 ], [ -79.576, 9.391 ], [ -79.607, 9.406 ], [ -79.61, 9.438 ], [ -79.642, 9.453 ], [ -79.645, 9.486 ], [ -79.677, 9.5 ], [ -79.68, 9.533 ], [ -79.651, 9.551 ], [ -79.62, 9.536 ], [ -79.591, 9.554 ], [ -79.559, 9.54 ], [ -79.556, 9.507 ], [ -79.524, 9.493 ], [ -79.521, 9.46 ], [ -79.489, 9.445 ], [ -79.486, 9.413 ], [ -79.515, 9.395 ], [ -79.512, 9.362 ], [ -79.541, 9.344 ] ] ] } },
{ "type": "Feature", "properties": { "zone_id": "MA13-FORp", "area_id": "MA13", "area_name": "Chagres", "ecosystem": "forest", "action": "protect", "n_cells": 5, "area_km2": 180.1, "eco_ha": 17367, "rationale": "Intact forest on slopes above settlements and visitor infrastructure; retaining cover is the low-cost option and it is also the attraction." }, "geometry": { "type": "Polygon", "coordinates": [ [ [ -79.373, 9.173 ], [ -79.401, 9.155 ], [ -79.433, 9.169 ], [ -79.436, 9.202 ], [ -79.468, 9.217 ], [ -79.496, 9.198 ], [ -79.528, 9.213 ], [ -79.531, 9.246 ], [ -79.503, 9.264 ], [ -79.471, 9.249 ], [ -79.442, 9.267 ], [ -79.445, 9.3 ], [ -79.417, 9.318 ], [ -79.385, 9.304 ], [ -79.382, 9.271 ], [ -79.35, 9.256 ], [ -79.347, 9.224 ], [ -79.376, 9.206 ], [ -79.373, 9.173 ] ] ] } },
{ "type": "Feature", "properties": { "zone_id": "MA14-MANp", "area_id": "MA14", "area_name": "Bahía de Chame (Capira)", "ecosystem": "mangrove", "action": "protect", "n_cells": 3, "area_km2": 110.5, "eco_ha": 3532, "rationale": "Mangrove is present and functioning between open water and low-lying assets; protecting standing mangrove is cheaper and more certain than replanting it." }, "geometry": { "type": "Polygon", "coordinates": [ [ [ -79.805, 8.585 ], [ -79.837, 8.6 ], [ -79.84, 8.633 ], [ -79.871, 8.648 ], [ -79.875, 8.681 ], [ -79.846, 8.699 ], [ -79.814, 8.684 ], [ -79.811, 8.651 ], [ -79.779, 8.637 ], [ -79.75, 8.655 ], [ -79.718, 8.64 ], [ -79.715, 8.607 ], [ -79.744, 8.589 ], [ -79.776, 8.604 ], [ -79.805, 8.585 ] ] ] } },
{ "type": "Feature", "properties": { "zone_id": "MA14-REEp", "area_id": "MA14", "area_name": "Bahía de Chame (Capira)", "ecosystem": "reef and shallow shelf", "action": "protect", "n_cells": 2, "area_km2": 73.9, "eco_ha": 4130, "rationale": "Shallow reef-capable habitat with little strict protection, in an area where snorkelling and diving are or could be the product." }, "geometry": { "type": "Polygon", "coordinates": [ [ [ -79.805, 8.585 ], [ -79.837, 8.6 ], [ -79.84, 8.633 ], [ -79.811, 8.651 ], [ -79.779, 8.637 ], [ -79.75, 8.655 ], [ -79.718, 8.64 ], [ -79.715, 8.607 ], [ -79.744, 8.589 ], [ -79.776, 8.604 ], [ -79.805, 8.585 ] ] ] } }
]
}
