{
"type": "FeatureCollection",
"name": "opportunity_areas",
"crs": { "type": "name", "properties": { "name": "urn:ogc:def:crs:OGC:1.3:CRS84" } },
"xy_coordinate_resolution": 0.0001,
"features": [
{ "type": "Feature", "properties": { "cluster_id": "PR22", "name": "Palo Seco", "action": "PROTECT", "n_cells": 76, "area_km2": 2789.7, "fit": 69.4, "NAV": 63.8, "TDL": 23.0, "ACC": 28.7, "BCV": 60.5, "RES": 72.0, "JOBS": 47.8, "sensitivity": 36.4, "protection_gap": 75.1, "supply_gap": 42.0, "pa_frac": 0.754, "pa_strict_frac": 0.003, "pa_names": "Fortuna; La Amistad y Palo Seco; Palo Seco; San San Pond Sak", "mangrove_frac": 0.0007, "tree_frac": 0.861, "shallow_frac": 0.066, "wetland_frac": 0.0077, "relief_m": 901.0, "elev_max": 2378.0, "gbif_species": 380, "tt_gateway_h": 6.02, "population": 57201, "n_accommodation": 17, "n_food_service": 27, "n_attraction": 5, "n_beach": 4, "n_trail": 18, "n_dive_surf": 0, "n_marina_port": 5, "is_comarca": 1, "provinces": "Bocas del Toro; Chiriquí; Comarca Ngäbe Buglé", "districts": "Almirante; Besiko; Boquete; Changuinola; Gualaca; Jirondai", "ecoregion": "Talamancan montane forests", "watershed": "Río Changuinola", "gov_dest": "Comarca Ngabe - Soloy", "gov_share": 0.16, "gov_relation": "partial", "assets": "Oreba Chocolate Tour; Boca del Drago; Cangilones de Mague; Balneario Piedra Caliza; Finca Cerro Azul; Quijada del Diablo; Mirador; Mirador del Pianista; Playa Estrella; Playa Changuinola; Playa San San Norte; Shadow waterfall", "priority_score": 301.5, "rank": 1 }, "geometry": { "type": "Polygon", "coordinates": [ [ [ -82.591, 8.972 ], [ -82.594, 9.005 ], [ -82.564, 9.023 ], [ -82.567, 9.056 ], [ -82.599, 9.071 ], [ -82.602, 9.103 ], [ -82.634, 9.118 ], [ -82.663, 9.099 ], [ -82.695, 9.114 ], [ -82.697, 9.147 ], [ -82.668, 9.165 ], [ -82.671, 9.198 ], [ -82.703, 9.212 ], [ -82.706, 9.245 ], [ -82.677, 9.263 ], [ -82.679, 9.296 ], [ -82.711, 9.31 ], [ -82.714, 9.343 ], [ -82.685, 9.362 ], [ -82.688, 9.394 ], [ -82.659, 9.413 ], [ -82.627, 9.399 ], [ -82.624, 9.366 ], [ -82.592, 9.351 ], [ -82.589, 9.319 ], [ -82.558, 9.304 ], [ -82.528, 9.323 ], [ -82.497, 9.308 ], [ -82.468, 9.327 ], [ -82.471, 9.36 ], [ -82.502, 9.374 ], [ -82.505, 9.406 ], [ -82.476, 9.425 ], [ -82.479, 9.458 ], [ -82.511, 9.472 ], [ -82.54, 9.454 ], [ -82.571, 9.468 ], [ -82.574, 9.501 ], [ -82.545, 9.519 ], [ -82.548, 9.552 ], [ -82.519, 9.57 ], [ -82.487, 9.556 ], [ -82.484, 9.523 ], [ -82.453, 9.509 ], [ -82.424, 9.527 ], [ -82.392, 9.513 ], [ -82.389, 9.48 ], [ -82.357, 9.466 ], [ -82.354, 9.433 ], [ -82.323, 9.418 ], [ -82.32, 9.386 ], [ -82.349, 9.367 ], [ -82.346, 9.335 ], [ -82.314, 9.32 ], [ -82.311, 9.288 ], [ -82.341, 9.269 ], [ -82.372, 9.284 ], [ -82.401, 9.265 ], [ -82.398, 9.232 ], [ -82.367, 9.218 ], [ -82.364, 9.185 ], [ -82.393, 9.167 ], [ -82.39, 9.134 ], [ -82.419, 9.116 ], [ -82.451, 9.13 ], [ -82.454, 9.163 ], [ -82.486, 9.177 ], [ -82.515, 9.159 ], [ -82.512, 9.126 ], [ -82.48, 9.111 ], [ -82.477, 9.079 ], [ -82.506, 9.06 ], [ -82.504, 9.027 ], [ -82.472, 9.013 ], [ -82.469, 8.98 ], [ -82.437, 8.966 ], [ -82.408, 8.984 ], [ -82.376, 8.97 ], [ -82.347, 8.988 ], [ -82.315, 8.974 ], [ -82.286, 8.992 ], [ -82.254, 8.978 ], [ -82.252, 8.945 ], [ -82.22, 8.93 ], [ -82.217, 8.898 ], [ -82.185, 8.883 ], [ -82.182, 8.85 ], [ -82.211, 8.832 ], [ -82.209, 8.799 ], [ -82.177, 8.784 ], [ -82.148, 8.803 ], [ -82.15, 8.836 ], [ -82.121, 8.854 ], [ -82.09, 8.84 ], [ -82.087, 8.807 ], [ -82.055, 8.792 ], [ -82.052, 8.759 ], [ -82.02, 8.745 ], [ -82.017, 8.712 ], [ -81.985, 8.697 ], [ -81.983, 8.664 ], [ -82.012, 8.646 ], [ -82.009, 8.613 ], [ -82.038, 8.594 ], [ -82.07, 8.609 ], [ -82.099, 8.59 ], [ -82.131, 8.605 ], [ -82.16, 8.586 ], [ -82.192, 8.601 ], [ -82.195, 8.634 ], [ -82.226, 8.648 ], [ -82.255, 8.63 ], [ -82.287, 8.644 ], [ -82.29, 8.677 ], [ -82.322, 8.692 ], [ -82.351, 8.673 ], [ -82.383, 8.688 ], [ -82.386, 8.721 ], [ -82.418, 8.735 ], [ -82.42, 8.768 ], [ -82.391, 8.787 ], [ -82.394, 8.819 ], [ -82.426, 8.834 ], [ -82.429, 8.867 ], [ -82.461, 8.881 ], [ -82.463, 8.914 ], [ -82.495, 8.929 ], [ -82.524, 8.91 ], [ -82.556, 8.925 ], [ -82.559, 8.957 ], [ -82.591, 8.972 ] ] ] } },
{ "type": "Feature", "properties": { "cluster_id": "AD02", "name": "Ciudad de Panama - Taboga", "action": "ADAPT", "n_cells": 34, "area_km2": 1240.0, "fit": 68.7, "NAV": 52.8, "TDL": 77.8, "ACC": 83.2, "BCV": 47.4, "RES": 77.8, "JOBS": 59.9, "sensitivity": 30.9, "protection_gap": 73.7, "supply_gap": 0.3, "pa_frac": 0.089, "pa_strict_frac": 0.06, "pa_names": "Cerro Ancón; Cuenca Alta del Río Pacora; Humedal de Bahía de Panamá; Manglares de Panamá Viejo; P. Nal. Camino de Cruces", "mangrove_frac": 0.0111, "tree_frac": 0.45, "shallow_frac": 0.246, "wetland_frac": 0.0021, "relief_m": 216.0, "elev_max": 804.0, "gbif_species": 523, "tt_gateway_h": 0.33, "population": 1777526, "n_accommodation": 286, "n_food_service": 1289, "n_attraction": 159, "n_beach": 33, "n_trail": 63, "n_dive_surf": 1, "n_marina_port": 13, "is_comarca": 0, "provinces": "Panamá; Panamá Oeste", "districts": "Arraiján; La Chorrera; Panamá; Taboga", "ecoregion": "Isthmian-Atlantic moist forests", "watershed": "Ríos entre el Caimito y el Juan Díaz", "gov_dest": "Ciudad de Panama - Taboga", "gov_share": 0.5, "gov_relation": "refines", "assets": "Miraflores Locks; San Martín; Cabeza de Einstein; Parque Natural Metropolitano; Avalon Resort; Centro de Exhibiciones Marinas; Panama Viejo Entrada; Cabildo; Centro de Visitantes de Miraflores; Palacio Bolívar; Miguel de Cervantes Saavedra; Octavio Méndez Pereira", "priority_score": 244.3, "rank": 2 }, "geometry": { "type": "Polygon", "coordinates": [ [ [ -79.797, 8.834 ], [ -79.769, 8.852 ], [ -79.772, 8.885 ], [ -79.743, 8.904 ], [ -79.746, 8.936 ], [ -79.778, 8.951 ], [ -79.781, 8.984 ], [ -79.752, 9.002 ], [ -79.72, 8.988 ], [ -79.692, 9.006 ], [ -79.695, 9.039 ], [ -79.666, 9.057 ], [ -79.634, 9.042 ], [ -79.605, 9.06 ], [ -79.608, 9.093 ], [ -79.64, 9.108 ], [ -79.643, 9.14 ], [ -79.615, 9.159 ], [ -79.583, 9.144 ], [ -79.554, 9.162 ], [ -79.522, 9.148 ], [ -79.493, 9.166 ], [ -79.462, 9.151 ], [ -79.433, 9.169 ], [ -79.401, 9.155 ], [ -79.373, 9.173 ], [ -79.376, 9.206 ], [ -79.347, 9.224 ], [ -79.315, 9.209 ], [ -79.312, 9.176 ], [ -79.341, 9.158 ], [ -79.338, 9.125 ], [ -79.306, 9.111 ], [ -79.303, 9.078 ], [ -79.331, 9.06 ], [ -79.363, 9.074 ], [ -79.392, 9.056 ], [ -79.389, 9.024 ], [ -79.418, 9.005 ], [ -79.414, 8.973 ], [ -79.443, 8.954 ], [ -79.44, 8.921 ], [ -79.469, 8.903 ], [ -79.466, 8.87 ], [ -79.494, 8.852 ], [ -79.526, 8.867 ], [ -79.555, 8.849 ], [ -79.552, 8.816 ], [ -79.581, 8.797 ], [ -79.612, 8.812 ], [ -79.616, 8.845 ], [ -79.647, 8.86 ], [ -79.676, 8.841 ], [ -79.708, 8.856 ], [ -79.737, 8.838 ], [ -79.734, 8.805 ], [ -79.763, 8.787 ], [ -79.794, 8.801 ], [ -79.797, 8.834 ] ] ] } },
{ "type": "Feature", "properties": { "cluster_id": "AD01", "name": "Riviera Pacifica - Valle de Anton - El Cope - Penonome", "action": "ADAPT", "n_cells": 28, "area_km2": 1032.0, "fit": 67.0, "NAV": 52.3, "TDL": 67.8, "ACC": 80.1, "BCV": 48.5, "RES": 79.4, "JOBS": 55.0, "sensitivity": 29.8, "protection_gap": 78.3, "supply_gap": 0.4, "pa_frac": 0.02, "pa_strict_frac": 0.017, "pa_names": "Altos de Campana; Cerro Carigüana; Cerro Gaital", "mangrove_frac": 0.0, "tree_frac": 0.421, "shallow_frac": 0.32, "wetland_frac": 0.0002, "relief_m": 284.0, "elev_max": 1150.0, "gbif_species": 403, "tt_gateway_h": 0.82, "population": 80731, "n_accommodation": 87, "n_food_service": 106, "n_attraction": 22, "n_beach": 15, "n_trail": 60, "n_dive_surf": 0, "n_marina_port": 1, "is_comarca": 0, "provinces": "Coclé; Panamá Oeste", "districts": "Antón; Chame; Penonomé; San Carlos", "ecoregion": "Panamanian dry forests", "watershed": "Ríos entre el Antón y el Caimito", "gov_dest": "Riviera Pacifica - Valle de Anton - El Cope - Penonome", "gov_share": 0.71, "gov_relation": "refines", "assets": "Piedra Pintada; Canopy Tours Zip line; Square Trees;arboles cuadrados; APROVACA Orchid Nursery; Carreras Scooter & Supermoto; Serpentario; Los cajones de Chame; Chorro las Mozas #2; Chorro las Mozas #1; Entrada senderos y camping PN Altos de Campana; Información Turística del Parque Nacional; Parador Fotografico", "priority_score": 225.6, "rank": 3 }, "geometry": { "type": "Polygon", "coordinates": [ [ [ -80.177, 8.313 ], [ -80.209, 8.328 ], [ -80.212, 8.361 ], [ -80.183, 8.38 ], [ -80.186, 8.413 ], [ -80.157, 8.431 ], [ -80.125, 8.416 ], [ -80.096, 8.435 ], [ -80.064, 8.42 ], [ -80.035, 8.439 ], [ -80.038, 8.472 ], [ -80.01, 8.49 ], [ -80.013, 8.523 ], [ -80.044, 8.538 ], [ -80.073, 8.519 ], [ -80.105, 8.534 ], [ -80.108, 8.567 ], [ -80.14, 8.582 ], [ -80.169, 8.563 ], [ -80.201, 8.578 ], [ -80.204, 8.611 ], [ -80.175, 8.629 ], [ -80.178, 8.662 ], [ -80.149, 8.681 ], [ -80.117, 8.666 ], [ -80.114, 8.633 ], [ -80.082, 8.618 ], [ -80.054, 8.637 ], [ -80.057, 8.67 ], [ -80.028, 8.688 ], [ -79.996, 8.673 ], [ -79.967, 8.692 ], [ -79.935, 8.677 ], [ -79.906, 8.695 ], [ -79.875, 8.681 ], [ -79.871, 8.648 ], [ -79.9, 8.629 ], [ -79.897, 8.596 ], [ -79.865, 8.582 ], [ -79.862, 8.549 ], [ -79.831, 8.534 ], [ -79.802, 8.552 ], [ -79.77, 8.538 ], [ -79.767, 8.505 ], [ -79.796, 8.486 ], [ -79.828, 8.501 ], [ -79.856, 8.483 ], [ -79.853, 8.45 ], [ -79.882, 8.431 ], [ -79.914, 8.446 ], [ -79.943, 8.428 ], [ -79.94, 8.395 ], [ -79.969, 8.376 ], [ -80.001, 8.391 ], [ -80.029, 8.373 ], [ -80.026, 8.339 ], [ -80.055, 8.321 ], [ -80.087, 8.336 ], [ -80.116, 8.317 ], [ -80.113, 8.284 ], [ -80.142, 8.266 ], [ -80.174, 8.28 ], [ -80.177, 8.313 ] ] ] } },
{ "type": "Feature", "properties": { "cluster_id": "IN08", "name": "Capira-Penonomé", "action": "INVEST", "n_cells": 32, "area_km2": 1173.1, "fit": 64.4, "NAV": 52.4, "TDL": 25.5, "ACC": 74.9, "BCV": 48.5, "RES": 74.3, "JOBS": 50.6, "sensitivity": 30.3, "protection_gap": 72.1, "supply_gap": 26.9, "pa_frac": 0.054, "pa_strict_frac": 0.03, "pa_names": "Altos de Campana; Bahía de Chame", "mangrove_frac": 0.0169, "tree_frac": 0.644, "shallow_frac": 0.192, "wetland_frac": 0.0005, "relief_m": 385.0, "elev_max": 1007.0, "gbif_species": 386, "tt_gateway_h": 1.32, "population": 47126, "n_accommodation": 5, "n_food_service": 16, "n_attraction": 0, "n_beach": 12, "n_trail": 22, "n_dive_surf": 0, "n_marina_port": 0, "is_comarca": 0, "provinces": "Coclé; Panamá; Panamá Oeste", "districts": "Capira; La Chorrera; Penonomé; Taboga", "ecoregion": "Isthmian-Atlantic moist forests", "watershed": "Ríos entre el Antón y el Caimito", "gov_dest": "Riviera Pacifica - Valle de Anton - El Cope - Penonome", "gov_share": 0.34, "gov_relation": "partial", "assets": "Cascada Alba; Playa Santo Dolor Rodilla; Playa California; La Nativa; Las Pailas; Cascada Tavidá; Cascada Larguillo; Cerro La Vieja; Cerro El Viejo; Cerro Paitilla; Loma Campana; Cerro San Juan", "priority_score": 225.2, "rank": 4 }, "geometry": { "type": "Polygon", "coordinates": [ [ [ -80.395, 8.699 ], [ -80.366, 8.717 ], [ -80.334, 8.702 ], [ -80.305, 8.721 ], [ -80.274, 8.706 ], [ -80.245, 8.725 ], [ -80.248, 8.757 ], [ -80.219, 8.776 ], [ -80.187, 8.761 ], [ -80.158, 8.779 ], [ -80.126, 8.765 ], [ -80.097, 8.783 ], [ -80.101, 8.816 ], [ -80.072, 8.834 ], [ -80.075, 8.867 ], [ -80.046, 8.886 ], [ -80.014, 8.871 ], [ -80.011, 8.838 ], [ -79.979, 8.823 ], [ -79.951, 8.842 ], [ -79.919, 8.827 ], [ -79.916, 8.794 ], [ -79.884, 8.779 ], [ -79.855, 8.798 ], [ -79.823, 8.783 ], [ -79.794, 8.801 ], [ -79.763, 8.787 ], [ -79.734, 8.805 ], [ -79.737, 8.838 ], [ -79.708, 8.856 ], [ -79.676, 8.841 ], [ -79.647, 8.86 ], [ -79.616, 8.845 ], [ -79.612, 8.812 ], [ -79.641, 8.794 ], [ -79.638, 8.761 ], [ -79.667, 8.743 ], [ -79.664, 8.71 ], [ -79.693, 8.691 ], [ -79.725, 8.706 ], [ -79.753, 8.688 ], [ -79.75, 8.655 ], [ -79.779, 8.637 ], [ -79.811, 8.651 ], [ -79.814, 8.684 ], [ -79.846, 8.699 ], [ -79.875, 8.681 ], [ -79.906, 8.695 ], [ -79.935, 8.677 ], [ -79.967, 8.692 ], [ -79.996, 8.673 ], [ -80.028, 8.688 ], [ -80.057, 8.67 ], [ -80.088, 8.684 ], [ -80.117, 8.666 ], [ -80.149, 8.681 ], [ -80.178, 8.662 ], [ -80.175, 8.629 ], [ -80.204, 8.611 ], [ -80.236, 8.626 ], [ -80.265, 8.607 ], [ -80.296, 8.622 ], [ -80.325, 8.604 ], [ -80.357, 8.618 ], [ -80.36, 8.651 ], [ -80.392, 8.666 ], [ -80.395, 8.699 ] ] ] } },
{ "type": "Feature", "properties": { "cluster_id": "IN10", "name": "Cuenca del Río Santa María", "action": "INVEST", "n_cells": 32, "area_km2": 1181.1, "fit": 63.0, "NAV": 54.0, "TDL": 16.8, "ACC": 62.0, "BCV": 46.4, "RES": 75.4, "JOBS": 49.2, "sensitivity": 28.6, "protection_gap": 73.7, "supply_gap": 37.2, "pa_frac": 0.603, "pa_strict_frac": 0.019, "pa_names": "Cerro Guacamaya; Cuenca del Río Santa María", "mangrove_frac": 0.0, "tree_frac": 0.605, "shallow_frac": 0.001, "wetland_frac": 0.0, "relief_m": 614.0, "elev_max": 1586.0, "gbif_species": 232, "tt_gateway_h": 2.74, "population": 32146, "n_accommodation": 4, "n_food_service": 5, "n_attraction": 2, "n_beach": 0, "n_trail": 0, "n_dive_surf": 0, "n_marina_port": 0, "is_comarca": 1, "provinces": "Coclé; Comarca Ngäbe Buglé; Veraguas", "districts": "Calobre; Cañazas; La Pintada; Natá; Olá; San Francisco", "ecoregion": "Isthmian-Pacific moist forests", "watershed": "Río Santa María", "gov_dest": "Riviera Pacifica - Valle de Anton - El Cope - Penonome", "gov_share": 0.03, "gov_relation": "new", "assets": "La Silampa; Cerro El Salto; Los Valles o Piñero; El Salto : entrada del sendero; Cerro Las Peñitas; Cerro Picacho; Cerro El Castillo; Cerro La Mina; Cerro Cucharon; Cerro Tambor; Cerro Santa Rita; Cerro Campana", "priority_score": 220.3, "rank": 5 }, "geometry": { "type": "Polygon", "coordinates": [ [ [ -81.185, 8.3 ], [ -81.156, 8.319 ], [ -81.159, 8.352 ], [ -81.191, 8.366 ], [ -81.194, 8.399 ], [ -81.226, 8.414 ], [ -81.229, 8.447 ], [ -81.261, 8.462 ], [ -81.263, 8.495 ], [ -81.234, 8.513 ], [ -81.203, 8.499 ], [ -81.174, 8.517 ], [ -81.142, 8.503 ], [ -81.139, 8.47 ], [ -81.107, 8.455 ], [ -81.078, 8.473 ], [ -81.046, 8.459 ], [ -81.017, 8.477 ], [ -80.985, 8.463 ], [ -80.956, 8.481 ], [ -80.959, 8.514 ], [ -80.991, 8.529 ], [ -80.994, 8.562 ], [ -80.965, 8.58 ], [ -80.933, 8.566 ], [ -80.93, 8.533 ], [ -80.898, 8.518 ], [ -80.895, 8.485 ], [ -80.864, 8.47 ], [ -80.835, 8.489 ], [ -80.803, 8.474 ], [ -80.774, 8.493 ], [ -80.777, 8.526 ], [ -80.748, 8.544 ], [ -80.716, 8.53 ], [ -80.687, 8.548 ], [ -80.69, 8.581 ], [ -80.661, 8.599 ], [ -80.629, 8.585 ], [ -80.6, 8.603 ], [ -80.603, 8.636 ], [ -80.574, 8.655 ], [ -80.542, 8.64 ], [ -80.513, 8.658 ], [ -80.482, 8.644 ], [ -80.479, 8.611 ], [ -80.508, 8.592 ], [ -80.505, 8.559 ], [ -80.473, 8.545 ], [ -80.47, 8.512 ], [ -80.499, 8.493 ], [ -80.496, 8.46 ], [ -80.525, 8.442 ], [ -80.556, 8.456 ], [ -80.559, 8.489 ], [ -80.591, 8.504 ], [ -80.62, 8.486 ], [ -80.652, 8.5 ], [ -80.681, 8.482 ], [ -80.713, 8.496 ], [ -80.742, 8.478 ], [ -80.739, 8.445 ], [ -80.768, 8.427 ], [ -80.8, 8.441 ], [ -80.829, 8.423 ], [ -80.826, 8.39 ], [ -80.855, 8.371 ], [ -80.887, 8.386 ], [ -80.889, 8.419 ], [ -80.921, 8.434 ], [ -80.95, 8.415 ], [ -80.982, 8.43 ], [ -81.011, 8.411 ], [ -81.008, 8.378 ], [ -80.976, 8.363 ], [ -80.973, 8.33 ], [ -81.002, 8.312 ], [ -80.999, 8.279 ], [ -81.028, 8.26 ], [ -81.06, 8.275 ], [ -81.063, 8.308 ], [ -81.095, 8.323 ], [ -81.124, 8.304 ], [ -81.121, 8.271 ], [ -81.15, 8.252 ], [ -81.182, 8.267 ], [ -81.185, 8.3 ] ] ] } },
{ "type": "Feature", "properties": { "cluster_id": "AD03", "name": "David - Pedregal - Alanje", "action": "ADAPT", "n_cells": 23, "area_km2": 850.9, "fit": 65.3, "NAV": 49.1, "TDL": 65.0, "ACC": 66.7, "BCV": 49.4, "RES": 68.6, "JOBS": 64.8, "sensitivity": 32.0, "protection_gap": 63.1, "supply_gap": 1.2, "pa_frac": 0.064, "pa_strict_frac": 0.058, "pa_names": "La Amistad; Volcan Barú", "mangrove_frac": 0.0093, "tree_frac": 0.509, "shallow_frac": 0.002, "wetland_frac": 0.0011, "relief_m": 491.0, "elev_max": 2938.0, "gbif_species": 485, "tt_gateway_h": 0.76, "population": 196778, "n_accommodation": 111, "n_food_service": 336, "n_attraction": 32, "n_beach": 0, "n_trail": 118, "n_dive_surf": 0, "n_marina_port": 2, "is_comarca": 0, "provinces": "Chiriquí", "districts": "Boquerón; Boquete; Bugaba; David; Dolega; Gualaca", "ecoregion": "Isthmian-Pacific moist forests", "watershed": "Río Chiriquí", "gov_dest": "David - Pedregal - Alanje", "gov_share": 0.61, "gov_relation": "refines", "assets": "Mi jardín es su jardín; Boquete Tree Trek; Torre Campanario de la Catedral de San José; El Exporador Theme Park; El Exporador Entrance; Petroglifos de Caldera; Museo del Barrio y Antigüedades La Casona; Jungla de Panama; Comienza de Sendero Piedra de Lino; Club Activo 20-30; Elida Estate; Fort David", "priority_score": 207.5, "rank": 6 }, "geometry": { "type": "Polygon", "coordinates": [ [ [ -82.48, 8.382 ], [ -82.483, 8.415 ], [ -82.453, 8.434 ], [ -82.456, 8.467 ], [ -82.488, 8.481 ], [ -82.491, 8.514 ], [ -82.462, 8.533 ], [ -82.465, 8.566 ], [ -82.496, 8.58 ], [ -82.525, 8.562 ], [ -82.557, 8.576 ], [ -82.587, 8.558 ], [ -82.584, 8.525 ], [ -82.613, 8.506 ], [ -82.645, 8.521 ], [ -82.674, 8.502 ], [ -82.706, 8.517 ], [ -82.709, 8.55 ], [ -82.679, 8.568 ], [ -82.682, 8.601 ], [ -82.653, 8.62 ], [ -82.621, 8.605 ], [ -82.592, 8.624 ], [ -82.56, 8.609 ], [ -82.531, 8.628 ], [ -82.534, 8.661 ], [ -82.505, 8.68 ], [ -82.473, 8.665 ], [ -82.444, 8.684 ], [ -82.447, 8.716 ], [ -82.478, 8.731 ], [ -82.508, 8.713 ], [ -82.54, 8.727 ], [ -82.542, 8.76 ], [ -82.513, 8.778 ], [ -82.516, 8.811 ], [ -82.487, 8.83 ], [ -82.49, 8.863 ], [ -82.461, 8.881 ], [ -82.429, 8.867 ], [ -82.426, 8.834 ], [ -82.394, 8.819 ], [ -82.391, 8.787 ], [ -82.42, 8.768 ], [ -82.418, 8.735 ], [ -82.386, 8.721 ], [ -82.383, 8.688 ], [ -82.351, 8.673 ], [ -82.322, 8.692 ], [ -82.29, 8.677 ], [ -82.287, 8.644 ], [ -82.316, 8.626 ], [ -82.314, 8.593 ], [ -82.343, 8.574 ], [ -82.374, 8.588 ], [ -82.404, 8.57 ], [ -82.401, 8.537 ], [ -82.43, 8.518 ], [ -82.427, 8.485 ], [ -82.395, 8.471 ], [ -82.392, 8.438 ], [ -82.421, 8.419 ], [ -82.419, 8.386 ], [ -82.387, 8.371 ], [ -82.384, 8.338 ], [ -82.413, 8.32 ], [ -82.445, 8.334 ], [ -82.448, 8.367 ], [ -82.48, 8.382 ] ] ] } },
{ "type": "Feature", "properties": { "cluster_id": "MA16", "name": "Cuenca del Río Santa María (Aguadulce)", "action": "MANAGE", "n_cells": 24, "area_km2": 890.9, "fit": 61.4, "NAV": 32.4, "TDL": 26.7, "ACC": 69.6, "BCV": 53.1, "RES": 53.6, "JOBS": 53.8, "sensitivity": 32.9, "protection_gap": 51.6, "supply_gap": 10.2, "pa_frac": 0.865, "pa_strict_frac": 0.028, "pa_names": "Cuenca del Río Santa María; Sarigua", "mangrove_frac": 0.0181, "tree_frac": 0.23, "shallow_frac": 0.134, "wetland_frac": 0.0178, "relief_m": 71.0, "elev_max": 198.0, "gbif_species": 189, "tt_gateway_h": 1.92, "population": 25997, "n_accommodation": 3, "n_food_service": 8, "n_attraction": 0, "n_beach": 0, "n_trail": 0, "n_dive_surf": 0, "n_marina_port": 0, "is_comarca": 0, "provinces": "Coclé; Herrera; Veraguas", "districts": "Aguadulce; Calobre; Chitré; Ocú; Parita; Santa María", "ecoregion": "Panamanian dry forests", "watershed": "Río Santa María", "gov_dest": "Chitre - Parita", "gov_share": 0.25, "gov_relation": "partial", "assets": "Cerro Guacamayo", "priority_score": 197.6, "rank": 7 }, "geometry": { "type": "Polygon", "coordinates": [ [ [ -80.825, 8.04 ], [ -80.828, 8.073 ], [ -80.799, 8.091 ], [ -80.802, 8.124 ], [ -80.773, 8.143 ], [ -80.776, 8.176 ], [ -80.808, 8.191 ], [ -80.811, 8.224 ], [ -80.782, 8.242 ], [ -80.75, 8.228 ], [ -80.721, 8.246 ], [ -80.689, 8.232 ], [ -80.66, 8.25 ], [ -80.628, 8.236 ], [ -80.599, 8.254 ], [ -80.567, 8.239 ], [ -80.564, 8.206 ], [ -80.532, 8.191 ], [ -80.53, 8.158 ], [ -80.498, 8.144 ], [ -80.469, 8.162 ], [ -80.437, 8.147 ], [ -80.434, 8.114 ], [ -80.402, 8.1 ], [ -80.399, 8.066 ], [ -80.367, 8.052 ], [ -80.364, 8.018 ], [ -80.393, 8.0 ], [ -80.425, 8.015 ], [ -80.454, 7.996 ], [ -80.486, 8.011 ], [ -80.489, 8.044 ], [ -80.46, 8.062 ], [ -80.463, 8.096 ], [ -80.495, 8.11 ], [ -80.524, 8.092 ], [ -80.521, 8.059 ], [ -80.549, 8.04 ], [ -80.582, 8.055 ], [ -80.61, 8.036 ], [ -80.642, 8.051 ], [ -80.671, 8.033 ], [ -80.668, 7.999 ], [ -80.697, 7.981 ], [ -80.729, 7.995 ], [ -80.758, 7.977 ], [ -80.79, 7.992 ], [ -80.793, 8.025 ], [ -80.825, 8.04 ] ] ] } },
{ "type": "Feature", "properties": { "cluster_id": "PR26", "name": "Riviera Pacifica - Valle de Anton - El Cope - Penonome (Antón)", "action": "PROTECT", "n_cells": 17, "area_km2": 627.0, "fit": 68.0, "NAV": 44.9, "TDL": 44.1, "ACC": 79.0, "BCV": 51.7, "RES": 77.8, "JOBS": 58.0, "sensitivity": 31.0, "protection_gap": 77.8, "supply_gap": 7.3, "pa_frac": 0.028, "pa_strict_frac": 0.0, "pa_names": "Cerro Carigüana; Cerro Guacamaya", "mangrove_frac": 0.0, "tree_frac": 0.72, "shallow_frac": 0.0, "wetland_frac": 0.0, "relief_m": 339.0, "elev_max": 761.0, "gbif_species": 374, "tt_gateway_h": 0.87, "population": 56151, "n_accommodation": 4, "n_food_service": 15, "n_attraction": 0, "n_beach": 0, "n_trail": 3, "n_dive_surf": 0, "n_marina_port": 0, "is_comarca": 0, "provinces": "Coclé; Panamá Oeste", "districts": "Antón; La Pintada; Penonomé; San Carlos", "ecoregion": "Panamanian dry forests", "watershed": "Río Grande", "gov_dest": "Riviera Pacifica - Valle de Anton - El Cope - Penonome", "gov_share": 0.88, "gov_relation": "refines", "assets": "Cerro Guacamaya", "priority_score": 196.5, "rank": 8 }, "geometry": { "type": "Polygon", "coordinates": [ [ [ -80.47, 8.512 ], [ -80.473, 8.545 ], [ -80.505, 8.559 ], [ -80.508, 8.592 ], [ -80.479, 8.611 ], [ -80.482, 8.644 ], [ -80.453, 8.662 ], [ -80.421, 8.647 ], [ -80.392, 8.666 ], [ -80.36, 8.651 ], [ -80.357, 8.618 ], [ -80.325, 8.604 ], [ -80.296, 8.622 ], [ -80.265, 8.607 ], [ -80.236, 8.626 ], [ -80.204, 8.611 ], [ -80.201, 8.578 ], [ -80.169, 8.563 ], [ -80.14, 8.582 ], [ -80.108, 8.567 ], [ -80.105, 8.534 ], [ -80.073, 8.519 ], [ -80.044, 8.538 ], [ -80.013, 8.523 ], [ -80.01, 8.49 ], [ -80.038, 8.472 ], [ -80.035, 8.439 ], [ -80.064, 8.42 ], [ -80.096, 8.435 ], [ -80.125, 8.416 ], [ -80.157, 8.431 ], [ -80.16, 8.464 ], [ -80.192, 8.479 ], [ -80.195, 8.512 ], [ -80.227, 8.527 ], [ -80.255, 8.508 ], [ -80.287, 8.523 ], [ -80.316, 8.504 ], [ -80.348, 8.519 ], [ -80.351, 8.552 ], [ -80.383, 8.567 ], [ -80.412, 8.548 ], [ -80.409, 8.515 ], [ -80.438, 8.497 ], [ -80.47, 8.512 ] ] ] } },
{ "type": "Feature", "properties": { "cluster_id": "IN07", "name": "Palo Seco (Almirante)", "action": "INVEST", "n_cells": 19, "area_km2": 696.8, "fit": 64.2, "NAV": 54.2, "TDL": 14.8, "ACC": 52.0, "BCV": 46.9, "RES": 63.5, "JOBS": 59.8, "sensitivity": 28.2, "protection_gap": 64.3, "supply_gap": 39.4, "pa_frac": 0.13, "pa_strict_frac": 0.0, "pa_names": "Palo Seco", "mangrove_frac": 0.0041, "tree_frac": 0.71, "shallow_frac": 0.149, "wetland_frac": 0.0043, "relief_m": 457.0, "elev_max": 1034.0, "gbif_species": 372, "tt_gateway_h": 2.48, "population": 22418, "n_accommodation": 3, "n_food_service": 2, "n_attraction": 1, "n_beach": 0, "n_trail": 2, "n_dive_surf": 0, "n_marina_port": 0, "is_comarca": 1, "provinces": "Bocas del Toro; Comarca Ngäbe Buglé", "districts": "Almirante; Bocas del Toro; Chiriquí Grande; Jirondai", "ecoregion": "Isthmian-Atlantic moist forests", "watershed": "Ríos entre Changuinola y Cricamola", "gov_dest": "Bocas del Toro", "gov_share": 0.11, "gov_relation": "new", "assets": "Chorro Klosay; Cerro Bocatorito; Cerro Cauchero II; Cerro Cauchero; Cerro Chungal; Cerro Cuan Bight; Cerro Cuan; Cerro Egtu; Cerro Loma de Amante; Cerro Man; Cerro Primitivo; Cerro Pueblo Nuevo", "priority_score": 192.3, "rank": 9 }, "geometry": { "type": "Polygon", "coordinates": [ [ [ -82.209, 8.799 ], [ -82.211, 8.832 ], [ -82.182, 8.85 ], [ -82.185, 8.883 ], [ -82.217, 8.898 ], [ -82.22, 8.93 ], [ -82.252, 8.945 ], [ -82.254, 8.978 ], [ -82.286, 8.992 ], [ -82.289, 9.025 ], [ -82.321, 9.04 ], [ -82.324, 9.072 ], [ -82.295, 9.091 ], [ -82.297, 9.124 ], [ -82.329, 9.138 ], [ -82.332, 9.171 ], [ -82.364, 9.185 ], [ -82.367, 9.218 ], [ -82.338, 9.236 ], [ -82.306, 9.222 ], [ -82.277, 9.24 ], [ -82.245, 9.226 ], [ -82.242, 9.193 ], [ -82.21, 9.179 ], [ -82.208, 9.146 ], [ -82.237, 9.128 ], [ -82.234, 9.095 ], [ -82.263, 9.076 ], [ -82.26, 9.043 ], [ -82.228, 9.029 ], [ -82.225, 8.996 ], [ -82.194, 8.982 ], [ -82.165, 9.0 ], [ -82.133, 8.986 ], [ -82.13, 8.953 ], [ -82.098, 8.938 ], [ -82.069, 8.957 ], [ -82.037, 8.942 ], [ -82.034, 8.909 ], [ -82.002, 8.895 ], [ -82.0, 8.862 ], [ -81.968, 8.848 ], [ -81.965, 8.815 ], [ -81.933, 8.8 ], [ -81.93, 8.767 ], [ -81.959, 8.749 ], [ -81.991, 8.763 ], [ -81.994, 8.796 ], [ -82.026, 8.811 ], [ -82.055, 8.792 ], [ -82.087, 8.807 ], [ -82.09, 8.84 ], [ -82.121, 8.854 ], [ -82.15, 8.836 ], [ -82.148, 8.803 ], [ -82.177, 8.784 ], [ -82.209, 8.799 ] ] ] } },
{ "type": "Feature", "properties": { "cluster_id": "MA15", "name": "Riviera Pacifica - Valle de Anton - El Cope - Penonome (Antón)", "action": "MANAGE", "n_cells": 20, "area_km2": 738.1, "fit": 62.9, "NAV": 33.2, "TDL": 22.0, "ACC": 77.4, "BCV": 51.9, "RES": 57.0, "JOBS": 52.6, "sensitivity": 31.1, "protection_gap": 57.0, "supply_gap": 18.2, "pa_frac": 0.037, "pa_strict_frac": 0.0, "pa_names": "Cerro Cerrezuela; Cerro Guacamaya", "mangrove_frac": 0.0624, "tree_frac": 0.267, "shallow_frac": 0.171, "wetland_frac": 0.0134, "relief_m": 100.0, "elev_max": 585.0, "gbif_species": 293, "tt_gateway_h": 0.99, "population": 19475, "n_accommodation": 1, "n_food_service": 0, "n_attraction": 0, "n_beach": 0, "n_trail": 0, "n_dive_surf": 0, "n_marina_port": 0, "is_comarca": 0, "provinces": "Coclé", "districts": "Antón; Natá; Penonomé", "ecoregion": "Panamanian dry forests", "watershed": "Río Grande", "gov_dest": "Riviera Pacifica - Valle de Anton - El Cope - Penonome", "gov_share": 0.8, "gov_relation": "refines", "assets": "Cerro El Gago; Cerro Posada; Cerro Divisa", "priority_score": 191.5, "rank": 10 }, "geometry": { "type": "Polygon", "coordinates": [ [ [ -80.356, 8.269 ], [ -80.359, 8.302 ], [ -80.391, 8.317 ], [ -80.42, 8.299 ], [ -80.452, 8.313 ], [ -80.481, 8.295 ], [ -80.513, 8.309 ], [ -80.516, 8.342 ], [ -80.487, 8.361 ], [ -80.49, 8.394 ], [ -80.522, 8.409 ], [ -80.525, 8.442 ], [ -80.496, 8.46 ], [ -80.499, 8.493 ], [ -80.47, 8.512 ], [ -80.438, 8.497 ], [ -80.435, 8.464 ], [ -80.403, 8.449 ], [ -80.4, 8.416 ], [ -80.368, 8.402 ], [ -80.339, 8.42 ], [ -80.307, 8.405 ], [ -80.304, 8.372 ], [ -80.272, 8.357 ], [ -80.243, 8.376 ], [ -80.246, 8.409 ], [ -80.278, 8.424 ], [ -80.281, 8.457 ], [ -80.313, 8.471 ], [ -80.316, 8.504 ], [ -80.287, 8.523 ], [ -80.255, 8.508 ], [ -80.227, 8.527 ], [ -80.195, 8.512 ], [ -80.192, 8.479 ], [ -80.16, 8.464 ], [ -80.157, 8.431 ], [ -80.186, 8.413 ], [ -80.183, 8.38 ], [ -80.212, 8.361 ], [ -80.209, 8.328 ], [ -80.237, 8.31 ], [ -80.234, 8.277 ], [ -80.203, 8.262 ], [ -80.2, 8.229 ], [ -80.228, 8.21 ], [ -80.26, 8.225 ], [ -80.289, 8.207 ], [ -80.321, 8.221 ], [ -80.324, 8.254 ], [ -80.356, 8.269 ] ] ] } },
{ "type": "Feature", "properties": { "cluster_id": "IN11", "name": "Mironó", "action": "INVEST", "n_cells": 17, "area_km2": 630.3, "fit": 62.9, "NAV": 49.7, "TDL": 4.1, "ACC": 61.5, "BCV": 46.1, "RES": 60.2, "JOBS": 67.3, "sensitivity": 27.6, "protection_gap": 60.3, "supply_gap": 45.6, "pa_frac": 0.0, "pa_strict_frac": 0.0, "pa_names": "", "mangrove_frac": 0.0061, "tree_frac": 0.781, "shallow_frac": 0.002, "wetland_frac": 0.0, "relief_m": 636.0, "elev_max": 1263.0, "gbif_species": 191, "tt_gateway_h": 1.8, "population": 21458, "n_accommodation": 0, "n_food_service": 0, "n_attraction": 2, "n_beach": 0, "n_trail": 0, "n_dive_surf": 0, "n_marina_port": 1, "is_comarca": 1, "provinces": "Chiriquí; Comarca Ngäbe Buglé", "districts": "Mironó; Müna; Nole Duima; Remedios; Tolé", "ecoregion": "Isthmian-Pacific moist forests", "watershed": "Ríos entre el Fonseca y el Tabasará", "gov_dest": "Corredor Oriental - San Felix / Las Lajas", "gov_share": 0.24, "gov_relation": "partial", "assets": "Parque Arqueológico de Nancito; El Nancito; Mirador de El Nancito; Cerro Brujo; Cerro Barro Blanco; Cerro Banco; Cerro Pilón; Cerro Madera; Cerro Miguel; Cerro Paloma; NB-121; Cerro Vaca", "priority_score": 181.8, "rank": 11 }, "geometry": { "type": "Polygon", "coordinates": [ [ [ -81.826, 8.275 ], [ -81.829, 8.308 ], [ -81.861, 8.323 ], [ -81.89, 8.304 ], [ -81.922, 8.319 ], [ -81.925, 8.352 ], [ -81.957, 8.367 ], [ -81.96, 8.4 ], [ -81.931, 8.418 ], [ -81.934, 8.451 ], [ -81.905, 8.47 ], [ -81.873, 8.455 ], [ -81.844, 8.474 ], [ -81.812, 8.459 ], [ -81.783, 8.478 ], [ -81.751, 8.463 ], [ -81.748, 8.43 ], [ -81.716, 8.416 ], [ -81.713, 8.383 ], [ -81.681, 8.368 ], [ -81.678, 8.335 ], [ -81.647, 8.32 ], [ -81.618, 8.339 ], [ -81.585, 8.324 ], [ -81.583, 8.291 ], [ -81.551, 8.277 ], [ -81.548, 8.243 ], [ -81.577, 8.225 ], [ -81.609, 8.239 ], [ -81.612, 8.273 ], [ -81.644, 8.287 ], [ -81.673, 8.269 ], [ -81.705, 8.283 ], [ -81.734, 8.265 ], [ -81.731, 8.232 ], [ -81.76, 8.213 ], [ -81.792, 8.227 ], [ -81.795, 8.261 ], [ -81.826, 8.275 ] ] ] } },
{ "type": "Feature", "properties": { "cluster_id": "AD04", "name": "Bocas del Toro", "action": "ADAPT", "n_cells": 14, "area_km2": 510.9, "fit": 65.3, "NAV": 54.8, "TDL": 67.2, "ACC": 49.6, "BCV": 44.5, "RES": 82.1, "JOBS": 59.0, "sensitivity": 29.3, "protection_gap": 76.6, "supply_gap": 4.9, "pa_frac": 0.065, "pa_strict_frac": 0.064, "pa_names": "Isla Bastimentos; San San Pond Sak; Zona de Reserva de Matumbal", "mangrove_frac": 0.03, "tree_frac": 0.247, "shallow_frac": 0.654, "wetland_frac": 0.0098, "relief_m": 87.0, "elev_max": 310.0, "gbif_species": 439, "tt_gateway_h": 2.1, "population": 13105, "n_accommodation": 96, "n_food_service": 96, "n_attraction": 12, "n_beach": 17, "n_trail": 14, "n_dive_surf": 9, "n_marina_port": 19, "is_comarca": 0, "provinces": "Bocas del Toro", "districts": "Almirante; Bocas del Toro", "ecoregion": "Isthmian-Atlantic moist forests", "watershed": "Ríos entre Changuinola y Cricamola", "gov_dest": "Bocas del Toro", "gov_share": 0.43, "gov_relation": "partial", "assets": "Pure Tree Experience; Museo de Plástico; Silverbacks reefbreak; Surf point break; Isla Perezoso; isla de las estrellas; Finca Los Monos Botanical Gardens; Surf Break Point; Sloth; Parque Artesanías; Wizard beach; Viewing deck", "priority_score": 176.8, "rank": 12 }, "geometry": { "type": "Polygon", "coordinates": [ [ [ -82.401, 9.265 ], [ -82.372, 9.284 ], [ -82.341, 9.269 ], [ -82.311, 9.288 ], [ -82.314, 9.32 ], [ -82.346, 9.335 ], [ -82.349, 9.367 ], [ -82.32, 9.386 ], [ -82.323, 9.418 ], [ -82.354, 9.433 ], [ -82.357, 9.466 ], [ -82.328, 9.484 ], [ -82.296, 9.47 ], [ -82.294, 9.437 ], [ -82.262, 9.422 ], [ -82.259, 9.39 ], [ -82.227, 9.375 ], [ -82.198, 9.394 ], [ -82.166, 9.379 ], [ -82.164, 9.347 ], [ -82.132, 9.332 ], [ -82.129, 9.3 ], [ -82.158, 9.281 ], [ -82.155, 9.248 ], [ -82.123, 9.234 ], [ -82.121, 9.201 ], [ -82.15, 9.183 ], [ -82.181, 9.197 ], [ -82.21, 9.179 ], [ -82.242, 9.193 ], [ -82.245, 9.226 ], [ -82.277, 9.24 ], [ -82.306, 9.222 ], [ -82.338, 9.236 ], [ -82.367, 9.218 ], [ -82.398, 9.232 ], [ -82.401, 9.265 ] ] ] } },
{ "type": "Feature", "properties": { "cluster_id": "IN09", "name": "Tierras Altas - Renacimiento", "action": "INVEST", "n_cells": 14, "area_km2": 516.7, "fit": 64.6, "NAV": 45.8, "TDL": 15.2, "ACC": 63.7, "BCV": 48.0, "RES": 65.1, "JOBS": 62.4, "sensitivity": 28.8, "protection_gap": 65.1, "supply_gap": 30.6, "pa_frac": 0.0, "pa_strict_frac": 0.0, "pa_names": "", "mangrove_frac": 0.0, "tree_frac": 0.629, "shallow_frac": 0.0, "wetland_frac": 0.0, "relief_m": 404.0, "elev_max": 1504.0, "gbif_species": 453, "tt_gateway_h": 1.29, "population": 18071, "n_accommodation": 0, "n_food_service": 3, "n_attraction": 1, "n_beach": 0, "n_trail": 3, "n_dive_surf": 0, "n_marina_port": 0, "is_comarca": 0, "provinces": "Chiriquí", "districts": "Boquerón; Bugaba; Renacimiento", "ecoregion": "Isthmian-Pacific moist forests", "watershed": "Río Chiriquí Viejo", "gov_dest": "Tierras Altas - Renacimiento", "gov_share": 0.57, "gov_relation": "reinforces", "assets": "Petroglifo Chuspa Paraiso; Alto de Monte Lirio; CH-1082; CH-1163; CH-1225; CH-1270; Cerro El Centinela; Cerro Miraflores; Cerro Palmarito; Cerro San Antonio; Cerro Santa Clara", "priority_score": 174.9, "rank": 13 }, "geometry": { "type": "Polygon", "coordinates": [ [ [ -82.801, 8.56 ], [ -82.804, 8.593 ], [ -82.775, 8.611 ], [ -82.778, 8.645 ], [ -82.81, 8.659 ], [ -82.812, 8.692 ], [ -82.844, 8.706 ], [ -82.847, 8.739 ], [ -82.879, 8.754 ], [ -82.882, 8.787 ], [ -82.853, 8.805 ], [ -82.855, 8.838 ], [ -82.826, 8.857 ], [ -82.794, 8.842 ], [ -82.765, 8.861 ], [ -82.733, 8.847 ], [ -82.731, 8.814 ], [ -82.76, 8.795 ], [ -82.757, 8.762 ], [ -82.786, 8.743 ], [ -82.783, 8.71 ], [ -82.751, 8.696 ], [ -82.722, 8.715 ], [ -82.691, 8.7 ], [ -82.688, 8.667 ], [ -82.656, 8.653 ], [ -82.627, 8.671 ], [ -82.595, 8.657 ], [ -82.566, 8.675 ], [ -82.534, 8.661 ], [ -82.531, 8.628 ], [ -82.56, 8.609 ], [ -82.592, 8.624 ], [ -82.621, 8.605 ], [ -82.653, 8.62 ], [ -82.682, 8.601 ], [ -82.679, 8.568 ], [ -82.709, 8.55 ], [ -82.706, 8.517 ], [ -82.735, 8.498 ], [ -82.767, 8.512 ], [ -82.769, 8.545 ], [ -82.801, 8.56 ] ] ] } },
{ "type": "Feature", "properties": { "cluster_id": "MA18", "name": "La Amistad", "action": "MANAGE", "n_cells": 13, "area_km2": 478.3, "fit": 66.0, "NAV": 70.7, "TDL": 67.4, "ACC": 49.5, "BCV": 64.9, "RES": 75.5, "JOBS": 57.6, "sensitivity": 59.0, "protection_gap": 36.0, "supply_gap": 7.4, "pa_frac": 0.581, "pa_strict_frac": 0.501, "pa_names": "La Amistad; La Amistad y Palo Seco; La Amistad y Volcán Barú; Volcan Barú", "mangrove_frac": 0.0, "tree_frac": 0.815, "shallow_frac": 0.0, "wetland_frac": 0.0, "relief_m": 1282.0, "elev_max": 3441.0, "gbif_species": 539, "tt_gateway_h": 2.47, "population": 15324, "n_accommodation": 23, "n_food_service": 9, "n_attraction": 4, "n_beach": 0, "n_trail": 95, "n_dive_surf": 0, "n_marina_port": 0, "is_comarca": 0, "provinces": "Bocas del Toro; Chiriquí", "districts": "Almirante; Boquerón; Boquete; Renacimiento; Tierras Altas", "ecoregion": "Talamancan montane forests", "watershed": "Río Chiriquí Viejo", "gov_dest": "Tierras Altas - Renacimiento", "gov_share": 0.77, "gov_relation": "refines", "assets": "Hidden Waterfalls; Finca Dracula; Cenizo (Árbol de 1000 años); Colibri Station; Mirador de Alto Respingo (PNVB); Mirador Las Rocas; Cráter de Volcán Barú; Mirador Cima Cerro Punta; Mirador de La Cascada; Cima del Volcán Barú; Mirador de La Nevera; Mirador Beltran", "priority_score": 174.2, "rank": 14 }, "geometry": { "type": "Polygon", "coordinates": [ [ [ -82.661, 8.719 ], [ -82.664, 8.752 ], [ -82.635, 8.77 ], [ -82.638, 8.803 ], [ -82.67, 8.818 ], [ -82.672, 8.851 ], [ -82.704, 8.865 ], [ -82.733, 8.847 ], [ -82.765, 8.861 ], [ -82.768, 8.894 ], [ -82.739, 8.912 ], [ -82.707, 8.898 ], [ -82.678, 8.916 ], [ -82.646, 8.902 ], [ -82.617, 8.921 ], [ -82.62, 8.954 ], [ -82.591, 8.972 ], [ -82.559, 8.957 ], [ -82.556, 8.925 ], [ -82.524, 8.91 ], [ -82.495, 8.929 ], [ -82.463, 8.914 ], [ -82.461, 8.881 ], [ -82.49, 8.863 ], [ -82.487, 8.83 ], [ -82.516, 8.811 ], [ -82.513, 8.778 ], [ -82.542, 8.76 ], [ -82.54, 8.727 ], [ -82.569, 8.708 ], [ -82.6, 8.723 ], [ -82.629, 8.704 ], [ -82.661, 8.719 ] ] ] } },
{ "type": "Feature", "properties": { "cluster_id": "MA17", "name": "Golfo de Montijo", "action": "MANAGE", "n_cells": 15, "area_km2": 562.2, "fit": 61.4, "NAV": 42.1, "TDL": 15.5, "ACC": 49.3, "BCV": 58.2, "RES": 47.4, "JOBS": 36.0, "sensitivity": 34.9, "protection_gap": 52.1, "supply_gap": 26.9, "pa_frac": 0.753, "pa_strict_frac": 0.0, "pa_names": "Golfo de Montijo; Sur de Veraguas", "mangrove_frac": 0.0888, "tree_frac": 0.21, "shallow_frac": 0.593, "wetland_frac": 0.0032, "relief_m": 89.0, "elev_max": 288.0, "gbif_species": 157, "tt_gateway_h": 3.93, "population": 3837, "n_accommodation": 0, "n_food_service": 5, "n_attraction": 0, "n_beach": 1, "n_trail": 0, "n_dive_surf": 0, "n_marina_port": 0, "is_comarca": 0, "provinces": "Veraguas", "districts": "Mariato; Montijo; Santiago; Soná", "ecoregion": "Isthmian-Pacific moist forests", "watershed": "Ríos entre el San Pedro y el Tonosí", "gov_dest": "Pacifico Veraguense - Golfo de Montijo - Santa Catalina - Mariato", "gov_share": 0.53, "gov_relation": "refines", "assets": "Playa Reina", "priority_score": 170.2, "rank": 15 }, "geometry": { "type": "Polygon", "coordinates": [ [ [ -81.159, 7.65 ], [ -81.191, 7.664 ], [ -81.194, 7.698 ], [ -81.225, 7.713 ], [ -81.228, 7.746 ], [ -81.199, 7.764 ], [ -81.167, 7.75 ], [ -81.138, 7.768 ], [ -81.106, 7.754 ], [ -81.077, 7.772 ], [ -81.045, 7.758 ], [ -81.016, 7.776 ], [ -81.019, 7.81 ], [ -80.99, 7.828 ], [ -80.958, 7.814 ], [ -80.955, 7.78 ], [ -80.923, 7.766 ], [ -80.92, 7.732 ], [ -80.949, 7.714 ], [ -80.946, 7.68 ], [ -80.975, 7.662 ], [ -80.972, 7.628 ], [ -81.002, 7.609 ], [ -80.999, 7.576 ], [ -80.967, 7.561 ], [ -80.964, 7.528 ], [ -80.993, 7.509 ], [ -81.025, 7.524 ], [ -81.028, 7.558 ], [ -81.06, 7.572 ], [ -81.063, 7.606 ], [ -81.095, 7.62 ], [ -81.124, 7.602 ], [ -81.156, 7.616 ], [ -81.159, 7.65 ] ] ] } },
{ "type": "Feature", "properties": { "cluster_id": "PR25", "name": "Alto Darién", "action": "PROTECT", "n_cells": 11, "area_km2": 401.6, "fit": 66.1, "NAV": 45.9, "TDL": 1.1, "ACC": 3.5, "BCV": 54.7, "RES": 67.2, "JOBS": 50.3, "sensitivity": 32.8, "protection_gap": 67.2, "supply_gap": 44.9, "pa_frac": 0.724, "pa_strict_frac": 0.0, "pa_names": "Alto Darién", "mangrove_frac": 0.0, "tree_frac": 0.999, "shallow_frac": 0.0, "wetland_frac": 0.0, "relief_m": 646.0, "elev_max": 1029.0, "gbif_species": 87, "tt_gateway_h": 20.24, "population": 3199, "n_accommodation": 0, "n_food_service": 0, "n_attraction": 0, "n_beach": 0, "n_trail": 0, "n_dive_surf": 0, "n_marina_port": 0, "is_comarca": 1, "provinces": "Comarca Emberá Wounaán; Comarca Kuna Yala", "districts": "Cémaco (Área 1); No asignado", "ecoregion": "Chocó-Darién moist forests", "watershed": "Río Chucunaque", "gov_dest": null, "gov_share": 0.0, "gov_relation": "new", "assets": "Loma alta", "priority_score": 164.3, "rank": 16 }, "geometry": { "type": "Polygon", "coordinates": [ [ [ -77.599, 8.414 ], [ -77.631, 8.429 ], [ -77.635, 8.462 ], [ -77.606, 8.48 ], [ -77.609, 8.513 ], [ -77.581, 8.531 ], [ -77.584, 8.564 ], [ -77.616, 8.579 ], [ -77.619, 8.611 ], [ -77.651, 8.626 ], [ -77.654, 8.659 ], [ -77.686, 8.674 ], [ -77.689, 8.707 ], [ -77.721, 8.722 ], [ -77.724, 8.754 ], [ -77.695, 8.773 ], [ -77.664, 8.758 ], [ -77.635, 8.776 ], [ -77.604, 8.761 ], [ -77.6, 8.728 ], [ -77.569, 8.713 ], [ -77.565, 8.681 ], [ -77.594, 8.662 ], [ -77.591, 8.63 ], [ -77.559, 8.615 ], [ -77.53, 8.633 ], [ -77.499, 8.618 ], [ -77.495, 8.585 ], [ -77.464, 8.57 ], [ -77.46, 8.537 ], [ -77.489, 8.519 ], [ -77.521, 8.534 ], [ -77.549, 8.516 ], [ -77.546, 8.483 ], [ -77.574, 8.465 ], [ -77.571, 8.432 ], [ -77.599, 8.414 ] ] ] } },
{ "type": "Feature", "properties": { "cluster_id": "PR27", "name": "Tierras Altas - Renacimiento (Boquerón)", "action": "PROTECT", "n_cells": 8, "area_km2": 295.5, "fit": 68.1, "NAV": 52.7, "TDL": 48.7, "ACC": 63.0, "BCV": 55.4, "RES": 71.8, "JOBS": 59.4, "sensitivity": 33.3, "protection_gap": 71.8, "supply_gap": 11.7, "pa_frac": 0.001, "pa_strict_frac": 0.0, "pa_names": "La Amistad; Laguna de Volcán", "mangrove_frac": 0.0, "tree_frac": 0.625, "shallow_frac": 0.0, "wetland_frac": 0.0, "relief_m": 606.0, "elev_max": 2294.0, "gbif_species": 570, "tt_gateway_h": 1.38, "population": 3596, "n_accommodation": 0, "n_food_service": 0, "n_attraction": 2, "n_beach": 0, "n_trail": 2, "n_dive_surf": 0, "n_marina_port": 0, "is_comarca": 0, "provinces": "Chiriquí", "districts": "Boquerón; Dolega; Renacimiento; Tierras Altas", "ecoregion": "Talamancan montane forests", "watershed": "Río Chiriquí Viejo", "gov_dest": "Tierras Altas - Renacimiento", "gov_share": 0.75, "gov_relation": "refines", "assets": "Macho de Monte Cascadas; Museo Potrerillos; Waterfall; Macho del Monte; Cascada; CH-1545; Cerro Tisingal; Cerro Palo Santo; Cerro Silla de Pando; Cerro Banco", "priority_score": 149.6, "rank": 17 }, "geometry": { "type": "Polygon", "coordinates": [ [ [ -82.691, 8.7 ], [ -82.722, 8.715 ], [ -82.751, 8.696 ], [ -82.783, 8.71 ], [ -82.786, 8.743 ], [ -82.757, 8.762 ], [ -82.76, 8.795 ], [ -82.731, 8.814 ], [ -82.733, 8.847 ], [ -82.704, 8.865 ], [ -82.672, 8.851 ], [ -82.67, 8.818 ], [ -82.699, 8.799 ], [ -82.696, 8.766 ], [ -82.664, 8.752 ], [ -82.661, 8.719 ], [ -82.629, 8.704 ], [ -82.6, 8.723 ], [ -82.569, 8.708 ], [ -82.54, 8.727 ], [ -82.508, 8.713 ], [ -82.478, 8.731 ], [ -82.447, 8.716 ], [ -82.444, 8.684 ], [ -82.473, 8.665 ], [ -82.505, 8.68 ], [ -82.534, 8.661 ], [ -82.566, 8.675 ], [ -82.595, 8.657 ], [ -82.627, 8.671 ], [ -82.656, 8.653 ], [ -82.688, 8.667 ], [ -82.691, 8.7 ] ] ] } },
{ "type": "Feature", "properties": { "cluster_id": "PR23", "name": "Narganá", "action": "PROTECT", "n_cells": 8, "area_km2": 289.5, "fit": 67.7, "NAV": 53.9, "TDL": 20.1, "ACC": 47.7, "BCV": 62.1, "RES": 67.0, "JOBS": 43.6, "sensitivity": 37.2, "protection_gap": 69.0, "supply_gap": 33.8, "pa_frac": 0.809, "pa_strict_frac": 0.0, "pa_names": "Narganá", "mangrove_frac": 0.0001, "tree_frac": 0.953, "shallow_frac": 0.001, "wetland_frac": 0.0, "relief_m": 328.0, "elev_max": 608.0, "gbif_species": 490, "tt_gateway_h": 4.27, "population": 0, "n_accommodation": 0, "n_food_service": 0, "n_attraction": 0, "n_beach": 0, "n_trail": 0, "n_dive_surf": 0, "n_marina_port": 0, "is_comarca": 1, "provinces": "Comarca Kuna Yala", "districts": "No asignado", "ecoregion": "Chocó-Darién moist forests", "watershed": "Ríos entre el Mandinga y Armila", "gov_dest": null, "gov_share": 0.0, "gov_relation": "new", "assets": "", "priority_score": 148.8, "rank": 18 }, "geometry": { "type": "Polygon", "coordinates": [ [ [ -79.048, 9.274 ], [ -79.08, 9.288 ], [ -79.083, 9.321 ], [ -79.115, 9.335 ], [ -79.118, 9.368 ], [ -79.089, 9.386 ], [ -79.092, 9.419 ], [ -79.064, 9.437 ], [ -79.032, 9.422 ], [ -79.003, 9.44 ], [ -78.971, 9.426 ], [ -78.943, 9.444 ], [ -78.911, 9.429 ], [ -78.908, 9.396 ], [ -78.876, 9.382 ], [ -78.873, 9.349 ], [ -78.902, 9.331 ], [ -78.898, 9.299 ], [ -78.927, 9.28 ], [ -78.959, 9.295 ], [ -78.962, 9.328 ], [ -78.933, 9.346 ], [ -78.936, 9.379 ], [ -78.968, 9.393 ], [ -78.997, 9.375 ], [ -78.994, 9.342 ], [ -79.022, 9.324 ], [ -79.019, 9.292 ], [ -79.048, 9.274 ] ] ] } },
{ "type": "Feature", "properties": { "cluster_id": "IN13", "name": "Colon - Portobelo - Santa Isabel", "action": "INVEST", "n_cells": 9, "area_km2": 327.0, "fit": 63.6, "NAV": 40.9, "TDL": 22.8, "ACC": 80.5, "BCV": 48.0, "RES": 72.0, "JOBS": 59.0, "sensitivity": 29.1, "protection_gap": 71.4, "supply_gap": 18.1, "pa_frac": 0.042, "pa_strict_frac": 0.007, "pa_names": "Chagres; Isla Galeta; Área Silvestre Protegida (Caribe)", "mangrove_frac": 0.038, "tree_frac": 0.596, "shallow_frac": 0.148, "wetland_frac": 0.0015, "relief_m": 241.0, "elev_max": 505.0, "gbif_species": 440, "tt_gateway_h": 0.62, "population": 105343, "n_accommodation": 1, "n_food_service": 13, "n_attraction": 0, "n_beach": 1, "n_trail": 0, "n_dive_surf": 0, "n_marina_port": 0, "is_comarca": 0, "provinces": "Colón", "districts": "Colón; Portobelo", "ecoregion": "Isthmian-Atlantic moist forests", "watershed": "Ríos entre el Chagres y Mandinga", "gov_dest": "Colon - Portobelo - Santa Isabel", "gov_share": 0.89, "gov_relation": "reinforces", "assets": "Crab Beach at galeta", "priority_score": 146.4, "rank": 19 }, "geometry": { "type": "Polygon", "coordinates": [ [ [ -79.713, 9.235 ], [ -79.745, 9.25 ], [ -79.748, 9.283 ], [ -79.78, 9.297 ], [ -79.783, 9.33 ], [ -79.814, 9.344 ], [ -79.843, 9.326 ], [ -79.875, 9.341 ], [ -79.878, 9.373 ], [ -79.91, 9.388 ], [ -79.913, 9.421 ], [ -79.884, 9.439 ], [ -79.852, 9.424 ], [ -79.823, 9.442 ], [ -79.792, 9.428 ], [ -79.763, 9.446 ], [ -79.731, 9.431 ], [ -79.728, 9.399 ], [ -79.696, 9.384 ], [ -79.693, 9.351 ], [ -79.662, 9.337 ], [ -79.659, 9.304 ], [ -79.687, 9.286 ], [ -79.684, 9.253 ], [ -79.713, 9.235 ] ] ] } },
{ "type": "Feature", "properties": { "cluster_id": "MA21", "name": "Bahía de Chame", "action": "MANAGE", "n_cells": 7, "area_km2": 257.0, "fit": 69.0, "NAV": 62.6, "TDL": 49.0, "ACC": 78.9, "BCV": 60.9, "RES": 82.7, "JOBS": 42.4, "sensitivity": 36.5, "protection_gap": 83.9, "supply_gap": 15.2, "pa_frac": 0.237, "pa_strict_frac": 0.0, "pa_names": "Bahía de Chame", "mangrove_frac": 0.1587, "tree_frac": 0.1, "shallow_frac": 0.565, "wetland_frac": 0.0057, "relief_m": 177.0, "elev_max": 498.0, "gbif_species": 392, "tt_gateway_h": 1.28, "population": 10115, "n_accommodation": 5, "n_food_service": 8, "n_attraction": 0, "n_beach": 6, "n_trail": 3, "n_dive_surf": 0, "n_marina_port": 0, "is_comarca": 0, "provinces": "Panamá Oeste", "districts": "Capira; Chame", "ecoregion": "South American Pacific mangroves", "watershed": "Ríos entre el Antón y el Caimito", "gov_dest": "Riviera Pacifica - Valle de Anton - El Cope - Penonome", "gov_share": 0.43, "gov_relation": "partial", "assets": "Mirador Cerro Chame; Cerro Tigre; Cerro de la Zona; Cerro Guasimo; Cerro Botija; Cerro Campanita", "priority_score": 143.5, "rank": 20 }, "geometry": { "type": "Polygon", "coordinates": [ [ [ -79.802, 8.552 ], [ -79.805, 8.585 ], [ -79.837, 8.6 ], [ -79.865, 8.582 ], [ -79.897, 8.596 ], [ -79.9, 8.629 ], [ -79.871, 8.648 ], [ -79.875, 8.681 ], [ -79.846, 8.699 ], [ -79.814, 8.684 ], [ -79.811, 8.651 ], [ -79.779, 8.637 ], [ -79.75, 8.655 ], [ -79.753, 8.688 ], [ -79.725, 8.706 ], [ -79.693, 8.691 ], [ -79.69, 8.659 ], [ -79.718, 8.64 ], [ -79.715, 8.607 ], [ -79.683, 8.593 ], [ -79.68, 8.56 ], [ -79.709, 8.541 ], [ -79.741, 8.556 ], [ -79.77, 8.538 ], [ -79.802, 8.552 ] ] ] } },
{ "type": "Feature", "properties": { "cluster_id": "IN12", "name": "Narganá (Comarca Kuna Yala)", "action": "INVEST", "n_cells": 6, "area_km2": 216.3, "fit": 63.4, "NAV": 56.4, "TDL": 40.8, "ACC": 60.0, "BCV": 46.7, "RES": 62.0, "JOBS": 57.6, "sensitivity": 28.0, "protection_gap": 70.1, "supply_gap": 16.6, "pa_frac": 0.411, "pa_strict_frac": 0.0, "pa_names": "Narganá; Santa Isabel", "mangrove_frac": 0.0353, "tree_frac": 0.258, "shallow_frac": 0.27, "wetland_frac": 0.0012, "relief_m": 68.0, "elev_max": 107.0, "gbif_species": 198, "tt_gateway_h": 3.17, "population": 3790, "n_accommodation": 2, "n_food_service": 4, "n_attraction": 1, "n_beach": 0, "n_trail": 0, "n_dive_surf": 0, "n_marina_port": 9, "is_comarca": 1, "provinces": "Comarca Kuna Yala", "districts": "No asignado", "ecoregion": "Chocó-Darién moist forests", "watershed": "Ríos entre el Chagres y Mandinga", "gov_dest": "Colon - Portobelo - Santa Isabel", "gov_share": 0.17, "gov_relation": "partial", "assets": "Museum of Kuna Cultura; Puerto Terminal Barsukan; Puerto Terminal Niga Cantule; Terminal-Puerto Dibin; Puerto Niga Kantule", "priority_score": 123.4, "rank": 21 }, "geometry": { "type": "Polygon", "coordinates": [ [ [ -79.124, 9.434 ], [ -79.127, 9.466 ], [ -79.098, 9.484 ], [ -79.101, 9.517 ], [ -79.073, 9.535 ], [ -79.041, 9.52 ], [ -79.013, 9.538 ], [ -79.016, 9.571 ], [ -78.987, 9.589 ], [ -78.955, 9.574 ], [ -78.952, 9.541 ], [ -78.981, 9.524 ], [ -78.978, 9.491 ], [ -78.946, 9.476 ], [ -78.943, 9.444 ], [ -78.971, 9.426 ], [ -79.003, 9.44 ], [ -79.032, 9.422 ], [ -79.064, 9.437 ], [ -79.092, 9.419 ], [ -79.124, 9.434 ] ] ] } },
{ "type": "Feature", "properties": { "cluster_id": "PR28", "name": "Aguadulce-Natá", "action": "PROTECT", "n_cells": 5, "area_km2": 185.5, "fit": 67.2, "NAV": 42.0, "TDL": 26.7, "ACC": 69.1, "BCV": 53.8, "RES": 85.3, "JOBS": 50.9, "sensitivity": 32.3, "protection_gap": 85.3, "supply_gap": 22.1, "pa_frac": 0.119, "pa_strict_frac": 0.0, "pa_names": "Cuenca del Río Santa María", "mangrove_frac": 0.1794, "tree_frac": 0.009, "shallow_frac": 0.515, "wetland_frac": 0.0373, "relief_m": 15.0, "elev_max": 28.0, "gbif_species": 209, "tt_gateway_h": 1.81, "population": 4412, "n_accommodation": 0, "n_food_service": 5, "n_attraction": 0, "n_beach": 1, "n_trail": 0, "n_dive_surf": 0, "n_marina_port": 0, "is_comarca": 0, "provinces": "Coclé", "districts": "Aguadulce; Natá", "ecoregion": "South American Pacific mangroves", "watershed": "Río Grande", "gov_dest": null, "gov_share": 0.0, "gov_relation": "new", "assets": "Playa El Salado", "priority_score": 120.4, "rank": 22 }, "geometry": { "type": "Polygon", "coordinates": [ [ [ -80.53, 8.158 ], [ -80.532, 8.191 ], [ -80.504, 8.21 ], [ -80.507, 8.243 ], [ -80.478, 8.261 ], [ -80.481, 8.295 ], [ -80.452, 8.313 ], [ -80.42, 8.299 ], [ -80.417, 8.265 ], [ -80.385, 8.251 ], [ -80.382, 8.217 ], [ -80.411, 8.199 ], [ -80.408, 8.166 ], [ -80.437, 8.147 ], [ -80.469, 8.162 ], [ -80.498, 8.144 ], [ -80.53, 8.158 ] ] ] } },
{ "type": "Feature", "properties": { "cluster_id": "AD05", "name": "Riviera Pacifica - Valle de Anton - El Cope - Penonome (Antón)", "action": "ADAPT", "n_cells": 5, "area_km2": 184.8, "fit": 64.4, "NAV": 35.8, "TDL": 69.1, "ACC": 80.4, "BCV": 50.6, "RES": 58.9, "JOBS": 59.9, "sensitivity": 30.4, "protection_gap": 58.9, "supply_gap": 0.0, "pa_frac": 0.0, "pa_strict_frac": 0.0, "pa_names": "", "mangrove_frac": 0.0, "tree_frac": 0.421, "shallow_frac": 0.0, "wetland_frac": 0.0005, "relief_m": 138.0, "elev_max": 307.0, "gbif_species": 319, "tt_gateway_h": 0.75, "population": 44233, "n_accommodation": 10, "n_food_service": 76, "n_attraction": 11, "n_beach": 0, "n_trail": 0, "n_dive_surf": 0, "n_marina_port": 0, "is_comarca": 0, "provinces": "Coclé", "districts": "Antón; Penonomé", "ecoregion": "Panamanian dry forests", "watershed": "Río Grande", "gov_dest": "Riviera Pacifica - Valle de Anton - El Cope - Penonome", "gov_share": 1.0, "gov_relation": "refines", "assets": "Simón Bolívar; Excelsa Mujer; Ramón M. Valdés; Museo de la Historia y la Tradición Penonomeña (Museo de Penonomé); Murales Conmemorativos de los Distritos de Coclé; Bicentenario de la Independencia de Panamá de España; Penonomé; Parque 9 de Enero; Centro Geográfico de la República de Panamá; Museo Hermanos Arias Madrid; Cerro Vista Hermosa", "priority_score": 115.4, "rank": 23 }, "geometry": { "type": "Polygon", "coordinates": [ [ [ -80.4, 8.416 ], [ -80.403, 8.449 ], [ -80.435, 8.464 ], [ -80.438, 8.497 ], [ -80.409, 8.515 ], [ -80.412, 8.548 ], [ -80.383, 8.567 ], [ -80.351, 8.552 ], [ -80.348, 8.519 ], [ -80.316, 8.504 ], [ -80.313, 8.471 ], [ -80.281, 8.457 ], [ -80.278, 8.424 ], [ -80.307, 8.405 ], [ -80.339, 8.42 ], [ -80.368, 8.402 ], [ -80.4, 8.416 ] ] ] } },
{ "type": "Feature", "properties": { "cluster_id": "MA20", "name": "General de División Omar Torrijos Herrera", "action": "MANAGE", "n_cells": 5, "area_km2": 183.0, "fit": 61.3, "NAV": 45.3, "TDL": 8.9, "ACC": 65.1, "BCV": 57.2, "RES": 76.6, "JOBS": 40.2, "sensitivity": 43.0, "protection_gap": 58.3, "supply_gap": 36.4, "pa_frac": 0.219, "pa_strict_frac": 0.219, "pa_names": "General de División Omar Torrijos Herrera", "mangrove_frac": 0.0, "tree_frac": 0.928, "shallow_frac": 0.0, "wetland_frac": 0.0, "relief_m": 621.0, "elev_max": 1024.0, "gbif_species": 391, "tt_gateway_h": 1.89, "population": 0, "n_accommodation": 0, "n_food_service": 0, "n_attraction": 0, "n_beach": 0, "n_trail": 0, "n_dive_surf": 0, "n_marina_port": 0, "is_comarca": 0, "provinces": "Coclé", "districts": "La Pintada", "ecoregion": "Isthmian-Pacific moist forests", "watershed": "Río Grande", "gov_dest": null, "gov_share": 0.0, "gov_relation": "new", "assets": "", "priority_score": 109.8, "rank": 24 }, "geometry": { "type": "Polygon", "coordinates": [ [ [ -80.574, 8.655 ], [ -80.577, 8.688 ], [ -80.548, 8.706 ], [ -80.551, 8.739 ], [ -80.522, 8.757 ], [ -80.491, 8.742 ], [ -80.462, 8.761 ], [ -80.43, 8.746 ], [ -80.427, 8.713 ], [ -80.395, 8.699 ], [ -80.392, 8.666 ], [ -80.421, 8.647 ], [ -80.453, 8.662 ], [ -80.482, 8.644 ], [ -80.513, 8.658 ], [ -80.542, 8.64 ], [ -80.574, 8.655 ] ] ] } },
{ "type": "Feature", "properties": { "cluster_id": "PR24", "name": "Jirondai-Kankintú", "action": "PROTECT", "n_cells": 4, "area_km2": 146.8, "fit": 66.8, "NAV": 47.0, "TDL": 0.0, "ACC": 16.8, "BCV": 49.7, "RES": 82.3, "JOBS": 66.5, "sensitivity": 29.8, "protection_gap": 82.3, "supply_gap": 47.0, "pa_frac": 0.0, "pa_strict_frac": 0.0, "pa_names": "", "mangrove_frac": 0.0, "tree_frac": 0.962, "shallow_frac": 0.0, "wetland_frac": 0.0, "relief_m": 1248.0, "elev_max": 2203.0, "gbif_species": 180, "tt_gateway_h": 9.48, "population": 4113, "n_accommodation": 0, "n_food_service": 0, "n_attraction": 0, "n_beach": 0, "n_trail": 0, "n_dive_surf": 0, "n_marina_port": 0, "is_comarca": 1, "provinces": "Comarca Ngäbe Buglé", "districts": "Jirondai; Kankintú", "ecoregion": "Talamancan montane forests", "watershed": "Ríos entre Changuinola y Cricamola", "gov_dest": null, "gov_share": 0.0, "gov_relation": "new", "assets": "Cerro Umanindú", "priority_score": 107.5, "rank": 25 }, "geometry": { "type": "Polygon", "coordinates": [ [ [ -81.861, 8.672 ], [ -81.89, 8.654 ], [ -81.922, 8.668 ], [ -81.924, 8.701 ], [ -81.956, 8.716 ], [ -81.959, 8.749 ], [ -81.93, 8.767 ], [ -81.933, 8.8 ], [ -81.904, 8.819 ], [ -81.872, 8.804 ], [ -81.869, 8.771 ], [ -81.838, 8.757 ], [ -81.835, 8.724 ], [ -81.864, 8.705 ], [ -81.861, 8.672 ] ] ] } },
{ "type": "Feature", "properties": { "cluster_id": "MA14", "name": "Narganá (Chepo)", "action": "MANAGE", "n_cells": 4, "area_km2": 144.9, "fit": 65.9, "NAV": 40.6, "TDL": 25.3, "ACC": 77.3, "BCV": 54.2, "RES": 70.8, "JOBS": 41.0, "sensitivity": 32.5, "protection_gap": 70.8, "supply_gap": 15.3, "pa_frac": 0.301, "pa_strict_frac": 0.0, "pa_names": "Narganá", "mangrove_frac": 0.0, "tree_frac": 0.86, "shallow_frac": 0.0, "wetland_frac": 0.0, "relief_m": 393.0, "elev_max": 496.0, "gbif_species": 487, "tt_gateway_h": 1.36, "population": 183, "n_accommodation": 1, "n_food_service": 1, "n_attraction": 1, "n_beach": 0, "n_trail": 4, "n_dive_surf": 0, "n_marina_port": 0, "is_comarca": 1, "provinces": "Comarca Kuna Yala; Panamá", "districts": "Chepo; No asignado", "ecoregion": "Isthmian-Atlantic moist forests", "watershed": "Río Bayano", "gov_dest": null, "gov_share": 0.0, "gov_relation": "new", "assets": "", "priority_score": 106.1, "rank": 26 }, "geometry": { "type": "Polygon", "coordinates": [ [ [ -79.045, 9.241 ], [ -79.048, 9.274 ], [ -79.019, 9.292 ], [ -79.022, 9.324 ], [ -78.994, 9.342 ], [ -78.997, 9.375 ], [ -78.968, 9.393 ], [ -78.936, 9.379 ], [ -78.933, 9.346 ], [ -78.962, 9.328 ], [ -78.959, 9.295 ], [ -78.927, 9.28 ], [ -78.924, 9.248 ], [ -78.953, 9.23 ], [ -78.984, 9.244 ], [ -79.013, 9.226 ], [ -79.045, 9.241 ] ] ] } },
{ "type": "Feature", "properties": { "cluster_id": "AD06", "name": "Las Tablas-Guararé", "action": "ADAPT", "n_cells": 4, "area_km2": 149.8, "fit": 64.2, "NAV": 49.5, "TDL": 59.7, "ACC": 62.1, "BCV": 53.8, "RES": 74.4, "JOBS": 54.8, "sensitivity": 32.7, "protection_gap": 73.6, "supply_gap": 1.7, "pa_frac": 0.449, "pa_strict_frac": 0.011, "pa_names": "Subcuenca del Río Mensabé; Zona Litoral del Corregimiento de El Espinal; Zona Litoral del Corregimiento de La Enea", "mangrove_frac": 0.0924, "tree_frac": 0.061, "shallow_frac": 0.345, "wetland_frac": 0.0021, "relief_m": 49.0, "elev_max": 63.0, "gbif_species": 216, "tt_gateway_h": 2.51, "population": 3889, "n_accommodation": 2, "n_food_service": 12, "n_attraction": 9, "n_beach": 8, "n_trail": 2, "n_dive_surf": 0, "n_marina_port": 0, "is_comarca": 0, "provinces": "Los Santos", "districts": "Guararé; Las Tablas", "ecoregion": "South American Pacific mangroves", "watershed": "Ríos entre el Tonosí y La Villa", "gov_dest": null, "gov_share": 0.0, "gov_relation": "new", "assets": "Caseta del Parque de La Enea; Monumento a Las Madres; Monumento Historico de la Enea; Monumento misión Jubilar año 2000; Monumento de San Antonio; Monumento a Manuel Fernando Zárate; Casa del Presidente Belisario Porras en Finca Pausilipo; Museo Manuel Fernando Zárate; El Puerto de Guararé; El Jobo; El Estero; Playa El Puerto", "priority_score": 103.3, "rank": 27 }, "geometry": { "type": "Polygon", "coordinates": [ [ [ -80.154, 7.73 ], [ -80.183, 7.712 ], [ -80.215, 7.727 ], [ -80.218, 7.76 ], [ -80.25, 7.775 ], [ -80.253, 7.808 ], [ -80.285, 7.823 ], [ -80.288, 7.856 ], [ -80.32, 7.871 ], [ -80.323, 7.904 ], [ -80.294, 7.923 ], [ -80.262, 7.908 ], [ -80.259, 7.875 ], [ -80.227, 7.86 ], [ -80.224, 7.827 ], [ -80.192, 7.812 ], [ -80.189, 7.779 ], [ -80.157, 7.764 ], [ -80.154, 7.73 ] ] ] } },
{ "type": "Feature", "properties": { "cluster_id": "MA19", "name": "David - Pedregal - Alanje (Chiriquí)", "action": "MANAGE", "n_cells": 4, "area_km2": 148.2, "fit": 61.2, "NAV": 43.6, "TDL": 24.6, "ACC": 60.6, "BCV": 51.5, "RES": 52.0, "JOBS": 57.3, "sensitivity": 33.0, "protection_gap": 54.0, "supply_gap": 19.0, "pa_frac": 0.052, "pa_strict_frac": 0.052, "pa_names": "Playa La Barqueta", "mangrove_frac": 0.5032, "tree_frac": 0.088, "shallow_frac": 0.298, "wetland_frac": 0.0032, "relief_m": 51.0, "elev_max": 71.0, "gbif_species": 287, "tt_gateway_h": 1.79, "population": 0, "n_accommodation": 0, "n_food_service": 0, "n_attraction": 0, "n_beach": 1, "n_trail": 0, "n_dive_surf": 0, "n_marina_port": 0, "is_comarca": 0, "provinces": "Chiriquí", "districts": "David", "ecoregion": "Southern Mesoamerican Pacific mangroves", "watershed": "Río Chiriquí", "gov_dest": "David - Pedregal - Alanje", "gov_share": 1.0, "gov_relation": "refines", "assets": "Isla Bajo Pipón", "priority_score": 98.5, "rank": 28 }, "geometry": { "type": "Polygon", "coordinates": [ [ [ -82.471, 8.283 ], [ -82.474, 8.316 ], [ -82.445, 8.334 ], [ -82.413, 8.32 ], [ -82.384, 8.338 ], [ -82.387, 8.371 ], [ -82.358, 8.39 ], [ -82.326, 8.376 ], [ -82.323, 8.342 ], [ -82.291, 8.328 ], [ -82.288, 8.295 ], [ -82.317, 8.276 ], [ -82.349, 8.291 ], [ -82.378, 8.272 ], [ -82.41, 8.287 ], [ -82.439, 8.268 ], [ -82.471, 8.283 ] ] ] } }
]
}
