{
"type": "FeatureCollection",
"name": "tourism_nodes",
"crs": { "type": "name", "properties": { "name": "urn:ogc:def:crs:OGC:1.3:CRS84" } },
"xy_coordinate_resolution": 1e-05,
"features": [
{ "type": "Feature", "properties": { "node_id": "AD01-N1", "area_id": "AD01", "area_name": "Riviera Pacifica - Valle de Anton - El Cope - Penonome (Antón)", "action": "ADAPT", "name": "Playa Blanca", "anchor_type": "beach", "n_assets": 4, "assets": "Buenaventura Zoo; Farallón (Playa Blanca); Playa Compuesta; Playa Blanca", "n_natural": 3, "asset_mix": "beach x3; attraction x1", "road_km": 0.24, "settlement_km": 0.24, "node_score": 80.0 }, "geometry": { "type": "Point", "coordinates": [ -80.15355, 8.34462 ] } },
{ "type": "Feature", "properties": { "node_id": "AD01-N2", "area_id": "AD01", "area_name": "Riviera Pacifica - Valle de Anton - El Cope - Penonome (Antón)", "action": "ADAPT", "name": "Playa Paragüito", "anchor_type": "beach", "n_assets": 2, "assets": "Playa Paragüito; Playa Santa Clara", "n_natural": 2, "asset_mix": "beach x2", "road_km": 0.76, "settlement_km": 0.14, "node_score": 57.9 }, "geometry": { "type": "Point", "coordinates": [ -80.07918, 8.38971 ] } },
{ "type": "Feature", "properties": { "node_id": "AD02-N1", "area_id": "AD02", "area_name": "Ciudad de Panama - Taboga", "action": "ADAPT", "name": "Mirador de Pacífico", "anchor_type": "viewpoint", "n_assets": 93, "assets": "San Martín; Cabeza de Einstein; Parque Natural Metropolitano; Palacio Bolívar; Miguel de Cervantes Saavedra; Octavio Méndez Pereira", "n_natural": 15, "asset_mix": "attraction x75; viewpoint x7; marina/landing x4; visitor_infra x3; beach x2; peak x2", "road_km": 0.0, "settlement_km": 0.05, "node_score": 179.2 }, "geometry": { "type": "Point", "coordinates": [ -79.53377, 8.9604 ] } },
{ "type": "Feature", "properties": { "node_id": "AD02-N2", "area_id": "AD02", "area_name": "Ciudad de Panama - Taboga", "action": "ADAPT", "name": "Playa Punta Culebra", "anchor_type": "beach", "n_assets": 15, "assets": "Centro de Exhibiciones Marinas; Fuerte Amador; Ship propeller; Fort Grant (EX U.S. Army Base); Hospital Nacional Larga Estancia; PANAMÁ sign", "n_natural": 8, "asset_mix": "attraction x7; beach x4; marina/landing x4", "road_km": 0.0, "settlement_km": 1.9, "node_score": 129.9 }, "geometry": { "type": "Point", "coordinates": [ -79.5296, 8.91301 ] } },
{ "type": "Feature", "properties": { "node_id": "AD02-N4", "area_id": "AD02", "area_name": "Ciudad de Panama - Taboga", "action": "ADAPT", "name": "Playa El Palmar", "anchor_type": "beach", "n_assets": 7, "assets": "Battery Murray; Playa Chumica; Playa El Palmar; Playa Veracruz; Playa Venao; Cerro Cabra", "n_natural": 6, "asset_mix": "beach x5; attraction x1; peak x1", "road_km": 0.03, "settlement_km": 0.37, "node_score": 111.9 }, "geometry": { "type": "Point", "coordinates": [ -79.61701, 8.89194 ] } },
{ "type": "Feature", "properties": { "node_id": "AD02-N3", "area_id": "AD02", "area_name": "Ciudad de Panama - Taboga", "action": "ADAPT", "name": "Scuba Panama", "anchor_type": "dive/surf site", "n_assets": 10, "assets": "Monumento a Eduardo Vallarino Chiari; apartamentos demolidos; Fuente; Fortin de la Natividad; Convento de la Merced; Convento de San Francisco", "n_natural": 4, "asset_mix": "attraction x6; viewpoint x2; peak x1; dive/surf site x1", "road_km": 0.02, "settlement_km": 0.31, "node_score": 100.7 }, "geometry": { "type": "Point", "coordinates": [ -79.52421, 8.99697 ] } },
{ "type": "Feature", "properties": { "node_id": "AD02-N5", "area_id": "AD02", "area_name": "Ciudad de Panama - Taboga", "action": "ADAPT", "name": "Mirador Puente de las Américas", "anchor_type": "viewpoint", "n_assets": 4, "assets": "Panama Canal Railway Passenger Terminal; Mirador del Faro; Mirador Puente de las Américas; San Juan Hill", "n_natural": 2, "asset_mix": "attraction x2; viewpoint x1; peak x1", "road_km": 0.02, "settlement_km": 0.4, "node_score": 68.2 }, "geometry": { "type": "Point", "coordinates": [ -79.57235, 8.94066 ] } },
{ "type": "Feature", "properties": { "node_id": "AD03-N1", "area_id": "AD03", "area_name": "Riviera Pacifica - Valle de Anton - El Cope - Penonome (Antón)", "action": "ADAPT", "name": "El Valle", "anchor_type": "peak", "n_assets": 32, "assets": "Piedra Pintada; Canopy Tours Zip line; Square Trees;arboles cuadrados; APROVACA Orchid Nursery; Serpentario; Chorro las Mozas #2", "n_natural": 17, "asset_mix": "attraction x14; viewpoint x7; peak x6; waterfall x4; visitor_infra x1", "road_km": 0.0, "settlement_km": 0.03, "node_score": 172.0 }, "geometry": { "type": "Point", "coordinates": [ -80.1276, 8.6045 ] } },
{ "type": "Feature", "properties": { "node_id": "AD03-N3", "area_id": "AD03", "area_name": "Riviera Pacifica - Valle de Anton - El Cope - Penonome (Antón)", "action": "ADAPT", "name": "Playa Coronado (oeste)", "anchor_type": "beach", "n_assets": 5, "assets": "Carreras Scooter & Supermoto; Playa Serena; Rancheria de Pablo y Venta de Pescado Rosa; Playa Coronado (oeste); Playa Nueva Gorgona", "n_natural": 4, "asset_mix": "beach x4; attraction x1", "road_km": 0.18, "settlement_km": 0.24, "node_score": 92.6 }, "geometry": { "type": "Point", "coordinates": [ -79.87811, 8.52934 ] } },
{ "type": "Feature", "properties": { "node_id": "AD03-N2", "area_id": "AD03", "area_name": "Riviera Pacifica - Valle de Anton - El Cope - Penonome (Antón)", "action": "ADAPT", "name": "Mirador Santo Domingo", "anchor_type": "viewpoint", "n_assets": 8, "assets": "Mirador Santo Domingo; Laguna de San Carlos; Bienvenido a  Lago La Laguna; hacia Lago Laguna,  hacia Los Llanitos; hacia Lago La Laguna, Hacia Alto del Mamey; Siena", "n_natural": 3, "asset_mix": "visitor_infra x5; peak x2; viewpoint x1", "road_km": 0.0, "settlement_km": 0.65, "node_score": 88.0 }, "geometry": { "type": "Point", "coordinates": [ -80.03964, 8.62455 ] } },
{ "type": "Feature", "properties": { "node_id": "AD03-N4", "area_id": "AD03", "area_name": "Riviera Pacifica - Valle de Anton - El Cope - Penonome (Antón)", "action": "ADAPT", "name": "El Palmar", "anchor_type": "beach", "n_assets": 3, "assets": "El Palmar; Playa Rio Mar; Vista Mar Marina", "n_natural": 3, "asset_mix": "beach x2; marina/landing x1", "road_km": 0.0, "settlement_km": 0.28, "node_score": 78.7 }, "geometry": { "type": "Point", "coordinates": [ -79.95409, 8.46742 ] } },
{ "type": "Feature", "properties": { "node_id": "AD03-N5", "area_id": "AD03", "area_name": "Riviera Pacifica - Valle de Anton - El Cope - Penonome (Antón)", "action": "ADAPT", "name": "Chorros de Palmilla", "anchor_type": "waterfall", "n_assets": 3, "assets": "Chorros de Palmilla; Cerro Vaca de Monte", "n_natural": 3, "asset_mix": "waterfall x2; peak x1", "road_km": 1.09, "settlement_km": 0.67, "node_score": 71.7 }, "geometry": { "type": "Point", "coordinates": [ -80.17318, 8.66399 ] } },
{ "type": "Feature", "properties": { "node_id": "AD04-N1", "area_id": "AD04", "area_name": "Isla Bastimentos", "action": "ADAPT", "name": "Playa Carenero", "anchor_type": "beach", "n_assets": 33, "assets": "Pure Tree Experience; Silverbacks reefbreak; Surf point break; Finca Los Monos Botanical Gardens; Surf Break Point; Parque Artesanías", "n_natural": 22, "asset_mix": "dive/surf site x7; attraction x6; beach x6; visitor_infra x5; marina/landing x4; peak x3; viewpoint x2", "road_km": 0.0, "settlement_km": 0.06, "node_score": 183.3 }, "geometry": { "type": "Point", "coordinates": [ -82.23021, 9.34457 ] } },
{ "type": "Feature", "properties": { "node_id": "AD04-N2", "area_id": "AD04", "area_name": "Isla Bastimentos", "action": "ADAPT", "name": "Viewing deck", "anchor_type": "viewpoint", "n_assets": 4, "assets": "Viewing deck; Dreffe Beach (Red Frog Beach); Red Frog Beach (Oophaga pumilio Beach); Palmar Dock", "n_natural": 4, "asset_mix": "beach x2; viewpoint x1; marina/landing x1", "road_km": 0.0, "settlement_km": 0.26, "node_score": 91.4 }, "geometry": { "type": "Point", "coordinates": [ -82.17519, 9.34435 ] } },
{ "type": "Feature", "properties": { "node_id": "AD04-N3", "area_id": "AD04", "area_name": "Isla Bastimentos", "action": "ADAPT", "name": "BT-76", "anchor_type": "peak", "n_assets": 2, "assets": "Museo de Plástico; BT-76", "n_natural": 1, "asset_mix": "attraction x1; peak x1", "road_km": 0.01, "settlement_km": 0.85, "node_score": 43.3 }, "geometry": { "type": "Point", "coordinates": [ -82.26069, 9.40303 ] } },
{ "type": "Feature", "properties": { "node_id": "AD04-N4", "area_id": "AD04", "area_name": "Isla Bastimentos", "action": "ADAPT", "name": "BT-18", "anchor_type": "peak", "n_assets": 1, "assets": "BT-18", "n_natural": 1, "asset_mix": "peak x1", "road_km": 0.57, "settlement_km": 0.86, "node_score": 35.1 }, "geometry": { "type": "Point", "coordinates": [ -82.30213, 9.40398 ] } },
{ "type": "Feature", "properties": { "node_id": "AD05-N2", "area_id": "AD05", "area_name": "David - Pedregal - Alanje (Chiriquí)", "action": "ADAPT", "name": "Cerro Pacoral", "anchor_type": "peak", "n_assets": 4, "assets": "Cerro Santa Cruz; Cerro Portachuelo; Cerro Pacoral; Cerro San Carlitos", "n_natural": 4, "asset_mix": "peak x4", "road_km": 0.21, "settlement_km": 0.34, "node_score": 90.1 }, "geometry": { "type": "Point", "coordinates": [ -82.44005, 8.47763 ] } },
{ "type": "Feature", "properties": { "node_id": "AD05-N1", "area_id": "AD05", "area_name": "David - Pedregal - Alanje (Chiriquí)", "action": "ADAPT", "name": "Cerro San Cristóbal", "anchor_type": "peak", "n_assets": 11, "assets": "Torre Campanario de la Catedral de San José; Museo del Barrio y Antigüedades La Casona; Fort David; Fundación Cultural Gallegos; Antiguo Museo José Domingo de Obaldia; Cristóbal Colón", "n_natural": 1, "asset_mix": "attraction x9; visitor_infra x1; peak x1", "road_km": 0.01, "settlement_km": 0.07, "node_score": 60.9 }, "geometry": { "type": "Point", "coordinates": [ -82.4437, 8.40963 ] } },
{ "type": "Feature", "properties": { "node_id": "AD06-N1", "area_id": "AD06", "area_name": "Riviera Pacifica - Valle de Anton - El Cope - Penonome (Antón)", "action": "ADAPT", "name": "Cerro Vista Hermosa", "anchor_type": "peak", "n_assets": 16, "assets": "Simón Bolívar; Excelsa Mujer; Ramón M. Valdés; Museo de la Historia y la Tradición Penonomeña (Museo de Penonomé); Murales Conmemorativos de los Distritos de Coclé; Bicentenario de la Independencia de Panamá de España", "n_natural": 1, "asset_mix": "attraction x10; visitor_infra x5; peak x1", "road_km": 0.0, "settlement_km": 0.08, "node_score": 65.1 }, "geometry": { "type": "Point", "coordinates": [ -80.37632, 8.53147 ] } },
{ "type": "Feature", "properties": { "node_id": "AD07-N1", "area_id": "AD07", "area_name": "Boquete", "action": "ADAPT", "name": "Cerro Palo Alto", "anchor_type": "peak", "n_assets": 14, "assets": "Mi jardín es su jardín; Boquete Tree Trek; El Exporador Theme Park; El Exporador Entrance; Comienza de Sendero Piedra de Lino; Mercado Artesanal", "n_natural": 7, "asset_mix": "attraction x6; peak x4; viewpoint x3; visitor_infra x1", "road_km": 0.01, "settlement_km": 0.1, "node_score": 125.9 }, "geometry": { "type": "Point", "coordinates": [ -82.40979, 8.79591 ] } },
{ "type": "Feature", "properties": { "node_id": "AD07-N3", "area_id": "AD07", "area_name": "Boquete", "action": "ADAPT", "name": "Cerro Grande", "anchor_type": "peak", "n_assets": 3, "assets": "Petroglifos de Caldera; Cerro Grande; Cerro Petra", "n_natural": 2, "asset_mix": "peak x2; attraction x1", "road_km": 0.44, "settlement_km": 0.23, "node_score": 63.2 }, "geometry": { "type": "Point", "coordinates": [ -82.38752, 8.66944 ] } },
{ "type": "Feature", "properties": { "node_id": "AD07-N2", "area_id": "AD07", "area_name": "Boquete", "action": "ADAPT", "name": "Mirador de Alto Boquete", "anchor_type": "viewpoint", "n_assets": 3, "assets": "Jungla de Panama; Mirador de Alto Boquete; Autoridad de Turismo Panama", "n_natural": 1, "asset_mix": "attraction x1; viewpoint x1; visitor_infra x1", "road_km": 0.02, "settlement_km": 0.17, "node_score": 47.5 }, "geometry": { "type": "Point", "coordinates": [ -82.43233, 8.75889 ] } },
{ "type": "Feature", "properties": { "node_id": "AD07-N4", "area_id": "AD07", "area_name": "Boquete", "action": "ADAPT", "name": "Vista del cañón del río Caldera", "anchor_type": "viewpoint", "n_assets": 1, "assets": "Vista del cañón del río Caldera", "n_natural": 1, "asset_mix": "viewpoint x1", "road_km": 0.02, "settlement_km": 0.73, "node_score": 38.5 }, "geometry": { "type": "Point", "coordinates": [ -82.43704, 8.67192 ] } },
{ "type": "Feature", "properties": { "node_id": "AD08-N2", "area_id": "AD08", "area_name": "Golfo de Chiriquí", "action": "ADAPT", "name": "Playa Piedrita", "anchor_type": "beach", "n_assets": 10, "assets": "Playa Coca; Playa Piedrita; Playa Chistina; Playa Grande; Boca Brava; Boca Chica", "n_natural": 9, "asset_mix": "marina/landing x5; beach x4; attraction x1", "road_km": 0.0, "settlement_km": 0.14, "node_score": 132.2 }, "geometry": { "type": "Point", "coordinates": [ -82.21159, 8.21096 ] } },
{ "type": "Feature", "properties": { "node_id": "AD08-N3", "area_id": "AD08", "area_name": "Golfo de Chiriquí", "action": "ADAPT", "name": "Playa Hermosa", "anchor_type": "beach", "n_assets": 3, "assets": "Playa Hermosa; Cerro Largo; Cerro Cuchara", "n_natural": 3, "asset_mix": "peak x2; beach x1", "road_km": 0.31, "settlement_km": 0.46, "node_score": 76.6 }, "geometry": { "type": "Point", "coordinates": [ -82.16309, 8.2196 ] } },
{ "type": "Feature", "properties": { "node_id": "AD08-N1", "area_id": "AD08", "area_name": "Golfo de Chiriquí", "action": "ADAPT", "name": "Isla Palenque", "anchor_type": "marina/landing", "n_assets": 17, "assets": "Playa Perdida; Sendero Perdida; Paso Canopy; Laguna Mangle; Paso Mangle; Estrecho de Pantana", "n_natural": 1, "asset_mix": "visitor_infra x16; marina/landing x1", "road_km": 0.0, "settlement_km": 0.17, "node_score": 65.7 }, "geometry": { "type": "Point", "coordinates": [ -82.25351, 8.18465 ] } },
{ "type": "Feature", "properties": { "node_id": "AD39-N1", "area_id": "AD39", "area_name": "Cuenca del Río Santa María (Atalaya)", "action": "ADAPT", "name": "Xtrem Surf and skate", "anchor_type": "dive/surf site", "n_assets": 8, "assets": "Indio Urracá; Centro Interactivo Canal de Panamá; Manul Salvador Pinilla Chavarría; José del C. Aguirre; Regional de Veraguas; Juan Demóstenes Arosemena", "n_natural": 2, "asset_mix": "attraction x6; dive/surf site x2", "road_km": 0.01, "settlement_km": 0.24, "node_score": 75.5 }, "geometry": { "type": "Point", "coordinates": [ -80.97552, 8.10089 ] } },
{ "type": "Feature", "properties": { "node_id": "AD39-N2", "area_id": "AD39", "area_name": "Cuenca del Río Santa María (Atalaya)", "action": "ADAPT", "name": "Cerro Boca Viento", "anchor_type": "peak", "n_assets": 2, "assets": "Cerro Boca Viento; Cerro La Peana", "n_natural": 2, "asset_mix": "peak x2", "road_km": 0.39, "settlement_km": 0.77, "node_score": 59.4 }, "geometry": { "type": "Point", "coordinates": [ -80.94043, 8.12993 ] } },
{ "type": "Feature", "properties": { "node_id": "AD39-N4", "area_id": "AD39", "area_name": "Cuenca del Río Santa María (Atalaya)", "action": "ADAPT", "name": "Cerro Atalaya", "anchor_type": "peak", "n_assets": 1, "assets": "Cerro Atalaya", "n_natural": 1, "asset_mix": "peak x1", "road_km": 0.57, "settlement_km": 0.68, "node_score": 35.3 }, "geometry": { "type": "Point", "coordinates": [ -80.91563, 8.08176 ] } },
{ "type": "Feature", "properties": { "node_id": "AD39-N5", "area_id": "AD39", "area_name": "Cuenca del Río Santa María (Atalaya)", "action": "ADAPT", "name": "Cerro Grande", "anchor_type": "peak", "n_assets": 1, "assets": "Cerro Grande", "n_natural": 1, "asset_mix": "peak x1", "road_km": 0.87, "settlement_km": 1.22, "node_score": 32.8 }, "geometry": { "type": "Point", "coordinates": [ -81.02402, 8.07727 ] } },
{ "type": "Feature", "properties": { "node_id": "AD39-N3", "area_id": "AD39", "area_name": "Cuenca del Río Santa María (Atalaya)", "action": "ADAPT", "name": "Cerro Lechuza", "anchor_type": "peak", "n_assets": 1, "assets": "Cerro Lechuza", "n_natural": 1, "asset_mix": "peak x1", "road_km": 0.89, "settlement_km": 1.19, "node_score": 32.7 }, "geometry": { "type": "Point", "coordinates": [ -80.96665, 8.04897 ] } },
{ "type": "Feature", "properties": { "node_id": "AD40-N1", "area_id": "AD40", "area_name": "Pedasi - Tonosi - Cambutal", "action": "ADAPT", "name": "Playa Venao", "anchor_type": "beach", "n_assets": 3, "assets": "Playa Venao; Surf Dojo; Pucha Surf Club", "n_natural": 3, "asset_mix": "dive/surf site x2; beach x1", "road_km": 0.12, "settlement_km": 0.14, "node_score": 78.1 }, "geometry": { "type": "Point", "coordinates": [ -80.19285, 7.43205 ] } },
{ "type": "Feature", "properties": { "node_id": "AD40-N3", "area_id": "AD40", "area_name": "Pedasi - Tonosi - Cambutal", "action": "ADAPT", "name": "El Arenal", "anchor_type": "marina/landing", "n_assets": 1, "assets": "El Arenal", "n_natural": 1, "asset_mix": "marina/landing x1", "road_km": 0.0, "settlement_km": 0.71, "node_score": 38.7 }, "geometry": { "type": "Point", "coordinates": [ -80.01951, 7.5589 ] } },
{ "type": "Feature", "properties": { "node_id": "AD40-N2", "area_id": "AD40", "area_name": "Pedasi - Tonosi - Cambutal", "action": "ADAPT", "name": "Playa Panamaes", "anchor_type": "beach", "n_assets": 1, "assets": "Playa Panamaes", "n_natural": 1, "asset_mix": "beach x1", "road_km": 0.11, "settlement_km": 0.6, "node_score": 38.1 }, "geometry": { "type": "Point", "coordinates": [ -80.0761, 7.44114 ] } },
{ "type": "Feature", "properties": { "node_id": "IN09-N1", "area_id": "IN09", "area_name": "Tierras Altas - Renacimiento (Chiriquí)", "action": "INVEST", "name": "CH-1225", "anchor_type": "peak", "n_assets": 8, "assets": "Alto de Monte Lirio; CH-1082; CH-1163; CH-1225; CH-1270; Cerro El Centinela", "n_natural": 8, "asset_mix": "peak x8", "road_km": 0.0, "settlement_km": 0.32, "node_score": 124.9 }, "geometry": { "type": "Point", "coordinates": [ -82.77607, 8.81463 ] } },
{ "type": "Feature", "properties": { "node_id": "IN09-N2", "area_id": "IN09", "area_name": "Tierras Altas - Renacimiento (Chiriquí)", "action": "INVEST", "name": "Cerro Miraflores", "anchor_type": "peak", "n_assets": 2, "assets": "Cerro Miraflores; Cerro Palmarito", "n_natural": 2, "asset_mix": "peak x2", "road_km": 0.03, "settlement_km": 0.17, "node_score": 62.2 }, "geometry": { "type": "Point", "coordinates": [ -82.84635, 8.83809 ] } },
{ "type": "Feature", "properties": { "node_id": "IN10-N1", "area_id": "IN10", "area_name": "Capira", "action": "INVEST", "name": "Cerro Paitilla", "anchor_type": "peak", "n_assets": 5, "assets": "Playa Santo Dolor Rodilla; Playa California; Cerro Paitilla; Cerro San Juan; Cerro Estacio", "n_natural": 5, "asset_mix": "peak x3; beach x2", "road_km": 0.09, "settlement_km": 0.68, "node_score": 100.8 }, "geometry": { "type": "Point", "coordinates": [ -79.77945, 8.7142 ] } },
{ "type": "Feature", "properties": { "node_id": "IN10-N2", "area_id": "IN10", "area_name": "Capira", "action": "INVEST", "name": "Cerro Pan de Azucar", "anchor_type": "peak", "n_assets": 3, "assets": "Cerro Santa Cruz; Cerro Pan de Azucar; Peñon Gordo", "n_natural": 3, "asset_mix": "peak x3", "road_km": 0.27, "settlement_km": 0.74, "node_score": 76.5 }, "geometry": { "type": "Point", "coordinates": [ -79.83329, 8.73167 ] } },
{ "type": "Feature", "properties": { "node_id": "IN10-N3", "area_id": "IN10", "area_name": "Capira", "action": "INVEST", "name": "Cascada Alba", "anchor_type": "beach", "n_assets": 1, "assets": "Cascada Alba", "n_natural": 1, "asset_mix": "beach x1", "road_km": 0.04, "settlement_km": 1.11, "node_score": 37.9 }, "geometry": { "type": "Point", "coordinates": [ -80.05999, 8.70756 ] } },
{ "type": "Feature", "properties": { "node_id": "IN10-N4", "area_id": "IN10", "area_name": "Capira", "action": "INVEST", "name": "Loma Campana", "anchor_type": "peak", "n_assets": 1, "assets": "Loma Campana", "n_natural": 1, "asset_mix": "peak x1", "road_km": 0.39, "settlement_km": 0.75, "node_score": 36.3 }, "geometry": { "type": "Point", "coordinates": [ -79.86728, 8.71146 ] } },
{ "type": "Feature", "properties": { "node_id": "IN10-N5", "area_id": "IN10", "area_name": "Capira", "action": "INVEST", "name": "Cerro Trinidad", "anchor_type": "peak", "n_assets": 1, "assets": "Cerro Trinidad", "n_natural": 1, "asset_mix": "peak x1", "road_km": 0.61, "settlement_km": 0.82, "node_score": 34.9 }, "geometry": { "type": "Point", "coordinates": [ -79.96263, 8.73748 ] } },
{ "type": "Feature", "properties": { "node_id": "IN11-N1", "area_id": "IN11", "area_name": "Chagres (Colón)", "action": "INVEST", "name": "Mirador De La Represa Madden", "anchor_type": "viewpoint", "n_assets": 1, "assets": "Mirador De La Represa Madden", "n_natural": 1, "asset_mix": "viewpoint x1", "road_km": 0.02, "settlement_km": 1.53, "node_score": 37.6 }, "geometry": { "type": "Point", "coordinates": [ -79.61857, 9.2125 ] } },
{ "type": "Feature", "properties": { "node_id": "IN12-N1", "area_id": "IN12", "area_name": "Cuenca del Río Santa María", "action": "INVEST", "name": "Cerro Santa Rita", "anchor_type": "peak", "n_assets": 9, "assets": "Cerro La Mina; Cerro Tambor; Cerro Santa Rita; Cerro Campana; Cerro Libertad; Cerro Sogo", "n_natural": 9, "asset_mix": "peak x9", "road_km": 0.14, "settlement_km": 0.58, "node_score": 129.7 }, "geometry": { "type": "Point", "coordinates": [ -81.18068, 8.27216 ] } },
{ "type": "Feature", "properties": { "node_id": "IN12-N2", "area_id": "IN12", "area_name": "Cuenca del Río Santa María", "action": "INVEST", "name": "Cerro Plata", "anchor_type": "peak", "n_assets": 3, "assets": "Cerro Plata; Cerro Alto de la Mina; Cerro Santa Rosa", "n_natural": 3, "asset_mix": "peak x3", "road_km": 0.11, "settlement_km": 0.55, "node_score": 77.7 }, "geometry": { "type": "Point", "coordinates": [ -81.22384, 8.29599 ] } },
{ "type": "Feature", "properties": { "node_id": "IN12-N3", "area_id": "IN12", "area_name": "Cuenca del Río Santa María", "action": "INVEST", "name": "Cerro Viejo", "anchor_type": "peak", "n_assets": 2, "assets": "Cerro Viejo; Cerro El Peñon", "n_natural": 2, "asset_mix": "peak x2", "road_km": 0.07, "settlement_km": 0.26, "node_score": 61.9 }, "geometry": { "type": "Point", "coordinates": [ -81.19178, 8.34045 ] } },
{ "type": "Feature", "properties": { "node_id": "IN12-N5", "area_id": "IN12", "area_name": "Cuenca del Río Santa María", "action": "INVEST", "name": "Cerro Cucharon", "anchor_type": "peak", "n_assets": 1, "assets": "Cerro Cucharon", "n_natural": 1, "asset_mix": "peak x1", "road_km": 0.95, "settlement_km": 0.49, "node_score": 33.2 }, "geometry": { "type": "Point", "coordinates": [ -81.14685, 8.25844 ] } },
{ "type": "Feature", "properties": { "node_id": "IN12-N4", "area_id": "IN12", "area_name": "Cuenca del Río Santa María", "action": "INVEST", "name": "Cerro Las Peñitas", "anchor_type": "peak", "n_assets": 1, "assets": "Cerro Las Peñitas", "n_natural": 1, "asset_mix": "peak x1", "road_km": 1.4, "settlement_km": 1.4, "node_score": 29.4 }, "geometry": { "type": "Point", "coordinates": [ -81.11002, 8.35152 ] } },
{ "type": "Feature", "properties": { "node_id": "IN13-N2", "area_id": "IN13", "area_name": "Müna", "action": "INVEST", "name": "Cerro Mitu", "anchor_type": "peak", "n_assets": 5, "assets": "Cerro Miguel; Cerro Paloma; Cerro Mesa; Cerro Gallina; Cerro Mitu", "n_natural": 5, "asset_mix": "peak x5", "road_km": 0.21, "settlement_km": 0.45, "node_score": 100.3 }, "geometry": { "type": "Point", "coordinates": [ -81.90651, 8.37885 ] } },
{ "type": "Feature", "properties": { "node_id": "IN13-N1", "area_id": "IN13", "area_name": "Müna", "action": "INVEST", "name": "Cerro Plata", "anchor_type": "peak", "n_assets": 5, "assets": "Petroglifos de Kiad; Cerro Barro Blanco; Cerro Plata; Cerro Piedra Pintada; Cerro Vendado", "n_natural": 4, "asset_mix": "peak x4; attraction x1", "road_km": 0.09, "settlement_km": 0.15, "node_score": 93.2 }, "geometry": { "type": "Point", "coordinates": [ -81.58696, 8.24817 ] } },
{ "type": "Feature", "properties": { "node_id": "IN13-N4", "area_id": "IN13", "area_name": "Müna", "action": "INVEST", "name": "Cerro Pilón", "anchor_type": "peak", "n_assets": 2, "assets": "Cerro Pilón; Cerro Vaca", "n_natural": 2, "asset_mix": "peak x2", "road_km": 0.52, "settlement_km": 0.69, "node_score": 58.7 }, "geometry": { "type": "Point", "coordinates": [ -81.86608, 8.41226 ] } },
{ "type": "Feature", "properties": { "node_id": "IN13-N3", "area_id": "IN13", "area_name": "Müna", "action": "INVEST", "name": "Cerro Iglesia", "anchor_type": "peak", "n_assets": 2, "assets": "Cerro Iglesia; Cerro Iglesias", "n_natural": 2, "asset_mix": "peak x2", "road_km": 1.38, "settlement_km": 1.23, "node_score": 52.9 }, "geometry": { "type": "Point", "coordinates": [ -81.55008, 8.29815 ] } },
{ "type": "Feature", "properties": { "node_id": "IN13-N5", "area_id": "IN13", "area_name": "Müna", "action": "INVEST", "name": "Cerro Peña Blanca", "anchor_type": "peak", "n_assets": 1, "assets": "Cerro Peña Blanca", "n_natural": 1, "asset_mix": "peak x1", "road_km": 1.57, "settlement_km": 1.86, "node_score": 27.9 }, "geometry": { "type": "Point", "coordinates": [ -81.69893, 8.45831 ] } },
{ "type": "Feature", "properties": { "node_id": "IN14-N1", "area_id": "IN14", "area_name": "David - Pedregal - Alanje", "action": "INVEST", "name": "Cerro de La Mina", "anchor_type": "peak", "n_assets": 7, "assets": "Ganadera Linda Vista; Entrace - 3$; Chorro de Chorcha; Cerro Gatún; Cerro Mata Caballo; Cerro de La Mina", "n_natural": 5, "asset_mix": "peak x4; visitor_infra x2; waterfall x1", "road_km": 0.01, "settlement_km": 0.38, "node_score": 105.1 }, "geometry": { "type": "Point", "coordinates": [ -82.25191, 8.41375 ] } },
{ "type": "Feature", "properties": { "node_id": "IN14-N2", "area_id": "IN14", "area_name": "David - Pedregal - Alanje", "action": "INVEST", "name": "Cerro Pelado", "anchor_type": "peak", "n_assets": 4, "assets": "Cerro Brujo; Cerro Pelado; Cerro Pelado Chiquito; Puerto Bajo Chorcha", "n_natural": 4, "asset_mix": "peak x3; marina/landing x1", "road_km": 0.0, "settlement_km": 0.54, "node_score": 91.1 }, "geometry": { "type": "Point", "coordinates": [ -82.29863, 8.35544 ] } },
{ "type": "Feature", "properties": { "node_id": "IN14-N4", "area_id": "IN14", "area_name": "David - Pedregal - Alanje", "action": "INVEST", "name": "Cerro Barro Blanco", "anchor_type": "peak", "n_assets": 1, "assets": "Cerro Barro Blanco", "n_natural": 1, "asset_mix": "peak x1", "road_km": 0.76, "settlement_km": 0.88, "node_score": 33.9 }, "geometry": { "type": "Point", "coordinates": [ -82.1895, 8.40879 ] } },
{ "type": "Feature", "properties": { "node_id": "IN14-N3", "area_id": "IN14", "area_name": "David - Pedregal - Alanje", "action": "INVEST", "name": "Cerro Herradura del Manglar", "anchor_type": "peak", "n_assets": 1, "assets": "Cerro Herradura del Manglar", "n_natural": 1, "asset_mix": "peak x1", "road_km": 2.39, "settlement_km": 1.87, "node_score": 22.9 }, "geometry": { "type": "Point", "coordinates": [ -82.20285, 8.35198 ] } },
{ "type": "Feature", "properties": { "node_id": "IN15-N1", "area_id": "IN15", "area_name": "La Pintada-Natá", "action": "INVEST", "name": "Los Valles o Piñero", "anchor_type": "waterfall", "n_assets": 1, "assets": "Los Valles o Piñero", "n_natural": 1, "asset_mix": "waterfall x1", "road_km": 0.45, "settlement_km": 1.69, "node_score": 34.8 }, "geometry": { "type": "Point", "coordinates": [ -80.56834, 8.49978 ] } },
{ "type": "Feature", "properties": { "node_id": "IN16-N2", "area_id": "IN16", "area_name": "San Lorenzo", "action": "INVEST", "name": "Playa Sherman", "anchor_type": "beach", "n_assets": 3, "assets": "Playa Sherman; Playa Diablillo; Shelter Bay Marina", "n_natural": 3, "asset_mix": "beach x2; marina/landing x1", "road_km": 0.0, "settlement_km": 0.64, "node_score": 78.3 }, "geometry": { "type": "Point", "coordinates": [ -79.94921, 9.35962 ] } },
{ "type": "Feature", "properties": { "node_id": "IN16-N1", "area_id": "IN16", "area_name": "San Lorenzo", "action": "INVEST", "name": "Playa Lajas", "anchor_type": "beach", "n_assets": 9, "assets": "Almacén de Pólvora; Cuarteles; Alojamiento del Castellano; Hornabeque; Luneta; Batería Superior", "n_natural": 2, "asset_mix": "attraction x7; beach x2", "road_km": 0.02, "settlement_km": 2.8, "node_score": 73.6 }, "geometry": { "type": "Point", "coordinates": [ -80.00248, 9.32385 ] } },
{ "type": "Feature", "properties": { "node_id": "IN17-N1", "area_id": "IN17", "area_name": "Riviera Pacifica - Valle de Anton - El Cope - Penonome (Penonomé)", "action": "INVEST", "name": "Cascada Larguillo", "anchor_type": "waterfall", "n_assets": 2, "assets": "Cascada Larguillo; Cerro El Viejo", "n_natural": 2, "asset_mix": "waterfall x1; peak x1", "road_km": 1.1, "settlement_km": 1.6, "node_score": 54.1 }, "geometry": { "type": "Point", "coordinates": [ -80.22445, 8.67395 ] } },
{ "type": "Feature", "properties": { "node_id": "IN17-N2", "area_id": "IN17", "area_name": "Riviera Pacifica - Valle de Anton - El Cope - Penonome (Penonomé)", "action": "INVEST", "name": "Cascada Tavidá", "anchor_type": "waterfall", "n_assets": 1, "assets": "Cascada Tavidá", "n_natural": 1, "asset_mix": "waterfall x1", "road_km": 0.4, "settlement_km": 0.78, "node_score": 36.2 }, "geometry": { "type": "Point", "coordinates": [ -80.18108, 8.67723 ] } },
{ "type": "Feature", "properties": { "node_id": "IN18-N1", "area_id": "IN18", "area_name": "Palo Seco (Jirondai)", "action": "INVEST", "name": "NB-444", "anchor_type": "peak", "n_assets": 2, "assets": "NB-444; NB-618", "n_natural": 2, "asset_mix": "peak x2", "road_km": 1.36, "settlement_km": 0.77, "node_score": 53.5 }, "geometry": { "type": "Point", "coordinates": [ -82.05828, 8.84433 ] } },
{ "type": "Feature", "properties": { "node_id": "IN19-N1", "area_id": "IN19", "area_name": "Colon - Portobelo - Santa Isabel (Colón)", "action": "INVEST", "name": "Crab Beach at galeta", "anchor_type": "beach", "n_assets": 1, "assets": "Crab Beach at galeta", "n_natural": 1, "asset_mix": "beach x1", "road_km": 0.02, "settlement_km": 0.65, "node_score": 38.6 }, "geometry": { "type": "Point", "coordinates": [ -79.86166, 9.40323 ] } },
{ "type": "Feature", "properties": { "node_id": "IN19-N2", "area_id": "IN19", "area_name": "Colon - Portobelo - Santa Isabel (Colón)", "action": "INVEST", "name": "Playa Escondida", "anchor_type": "beach", "n_assets": 1, "assets": "Playa Escondida", "n_natural": 1, "asset_mix": "beach x1", "road_km": 0.43, "settlement_km": 2.75, "node_score": 33.6 }, "geometry": { "type": "Point", "coordinates": [ -79.77708, 9.44248 ] } },
{ "type": "Feature", "properties": { "node_id": "MA20-N1", "area_id": "MA20", "area_name": "La Amistad", "action": "MANAGE", "name": "CH-1937", "anchor_type": "peak", "n_assets": 4, "assets": "CH-1937; Cerro Bambito; Cerro Pon la Olla; Cerro Potrero de Piedra", "n_natural": 4, "asset_mix": "peak x4", "road_km": 0.34, "settlement_km": 0.43, "node_score": 89.2 }, "geometry": { "type": "Point", "coordinates": [ -82.64884, 8.82734 ] } },
{ "type": "Feature", "properties": { "node_id": "MA20-N2", "area_id": "MA20", "area_name": "La Amistad", "action": "MANAGE", "name": "Bambito's Rocky Mount", "anchor_type": "peak", "n_assets": 1, "assets": "Bambito's Rocky Mount", "n_natural": 1, "asset_mix": "peak x1", "road_km": 0.45, "settlement_km": 0.92, "node_score": 35.7 }, "geometry": { "type": "Point", "coordinates": [ -82.62813, 8.85864 ] } },
{ "type": "Feature", "properties": { "node_id": "MA26-N1", "area_id": "MA26", "area_name": "Bahía de Chame", "action": "MANAGE", "name": "Cerro Guasimo", "anchor_type": "peak", "n_assets": 2, "assets": "Cerro Guasimo; Cerro Campanita", "n_natural": 2, "asset_mix": "peak x2", "road_km": 0.59, "settlement_km": 0.98, "node_score": 57.9 }, "geometry": { "type": "Point", "coordinates": [ -79.86337, 8.68779 ] } },
{ "type": "Feature", "properties": { "node_id": "MA26-N2", "area_id": "MA26", "area_name": "Bahía de Chame", "action": "MANAGE", "name": "Cerro Botija", "anchor_type": "peak", "n_assets": 2, "assets": "Infoplaza Bejuco; Cerro Botija", "n_natural": 1, "asset_mix": "visitor_infra x1; peak x1", "road_km": 0.01, "settlement_km": 0.26, "node_score": 44.0 }, "geometry": { "type": "Point", "coordinates": [ -79.89376, 8.62167 ] } },
{ "type": "Feature", "properties": { "node_id": "MA26-N4", "area_id": "MA26", "area_name": "Bahía de Chame", "action": "MANAGE", "name": "Cerro de la Zona", "anchor_type": "peak", "n_assets": 1, "assets": "Cerro de la Zona", "n_natural": 1, "asset_mix": "peak x1", "road_km": 0.18, "settlement_km": 1.85, "node_score": 36.2 }, "geometry": { "type": "Point", "coordinates": [ -79.85846, 8.63753 ] } },
{ "type": "Feature", "properties": { "node_id": "MA26-N3", "area_id": "MA26", "area_name": "Bahía de Chame", "action": "MANAGE", "name": "Mirador Cerro Chame", "anchor_type": "viewpoint", "n_assets": 1, "assets": "Mirador Cerro Chame", "n_natural": 1, "asset_mix": "viewpoint x1", "road_km": 1.89, "settlement_km": 2.14, "node_score": 25.6 }, "geometry": { "type": "Point", "coordinates": [ -79.83422, 8.59873 ] } },
{ "type": "Feature", "properties": { "node_id": "PR29-N2", "area_id": "PR29", "area_name": "Palo Seco", "action": "PROTECT", "name": "Bocas Marine & Tours S. A.", "anchor_type": "marina/landing", "n_assets": 8, "assets": "BT-36; Cerro Almirante; Cerro Limón; Filo Almirante; BT-112; Bocas Marine & Tours S. A.", "n_natural": 8, "asset_mix": "peak x5; marina/landing x3", "road_km": 0.0, "settlement_km": 0.23, "node_score": 125.0 }, "geometry": { "type": "Point", "coordinates": [ -82.40104, 9.29309 ] } },
{ "type": "Feature", "properties": { "node_id": "PR29-N1", "area_id": "PR29", "area_name": "Palo Seco", "action": "PROTECT", "name": "Cerro Artillería", "anchor_type": "peak", "n_assets": 8, "assets": "Finca Cerro Azul; Entrance - 5$; CH-2261; Cerro Azul; Cerro La Estrella; Cerro Artillería", "n_natural": 6, "asset_mix": "peak x6; attraction x1; visitor_infra x1", "road_km": 0.01, "settlement_km": 0.51, "node_score": 113.3 }, "geometry": { "type": "Point", "coordinates": [ -82.38873, 8.77599 ] } },
{ "type": "Feature", "properties": { "node_id": "PR29-N3", "area_id": "PR29", "area_name": "Palo Seco", "action": "PROTECT", "name": "Cascada Diablo", "anchor_type": "waterfall", "n_assets": 6, "assets": "Cascada Diablo; Cabello de Angel; Cabello de Angel #2; CH-1219; CH-1231; NB-1103", "n_natural": 6, "asset_mix": "waterfall x3; peak x3", "road_km": 0.02, "settlement_km": 0.23, "node_score": 110.5 }, "geometry": { "type": "Point", "coordinates": [ -82.1885, 8.77818 ] } },
{ "type": "Feature", "properties": { "node_id": "PR29-N4", "area_id": "PR29", "area_name": "Palo Seco", "action": "PROTECT", "name": "Cerro Gianera", "anchor_type": "peak", "n_assets": 6, "assets": "Mirador; Shadow waterfall; Cerro Gianera; Cerro Hornito; Cerro La Guianera; Cerro La Jaba", "n_natural": 6, "asset_mix": "peak x4; viewpoint x1; waterfall x1", "road_km": 0.16, "settlement_km": 0.81, "node_score": 109.0 }, "geometry": { "type": "Point", "coordinates": [ -82.21643, 8.64776 ] } },
{ "type": "Feature", "properties": { "node_id": "PR29-N5", "area_id": "PR29", "area_name": "Palo Seco", "action": "PROTECT", "name": "Cerro Pinola", "anchor_type": "peak", "n_assets": 5, "assets": "Cerro Guayabo; CH-2025; Cerro 3 de Noviembre; Cerro Fortuna; Cerro Pinola", "n_natural": 5, "asset_mix": "peak x5", "road_km": 0.4, "settlement_km": 0.43, "node_score": 99.2 }, "geometry": { "type": "Point", "coordinates": [ -82.26347, 8.75376 ] } },
{ "type": "Feature", "properties": { "node_id": "PR31-N1", "area_id": "PR31", "area_name": "Riviera Pacifica - Valle de Anton - El Cope - Penonome", "action": "PROTECT", "name": "Cerro Guacamaya", "anchor_type": "peak", "n_assets": 1, "assets": "Cerro Guacamaya", "n_natural": 1, "asset_mix": "peak x1", "road_km": 2.85, "settlement_km": 2.94, "node_score": 18.9 }, "geometry": { "type": "Point", "coordinates": [ -80.46703, 8.51291 ] } },
{ "type": "Feature", "properties": { "node_id": "PR36-N1", "area_id": "PR36", "area_name": "Aguadulce", "action": "PROTECT", "name": "Playa El Salado", "anchor_type": "beach", "n_assets": 1, "assets": "Playa El Salado", "n_natural": 1, "asset_mix": "beach x1", "road_km": 0.06, "settlement_km": 0.03, "node_score": 39.1 }, "geometry": { "type": "Point", "coordinates": [ -80.48368, 8.20197 ] } },
{ "type": "Feature", "properties": { "node_id": "PR38-N1", "area_id": "PR38", "area_name": "Tierras Altas - Renacimiento", "action": "PROTECT", "name": "Cerro Palo Santo", "anchor_type": "peak", "n_assets": 5, "assets": "Cascada; CH-1545; Cerro Tisingal; Cerro Palo Santo; Cerro Silla de Pando", "n_natural": 5, "asset_mix": "peak x4; waterfall x1", "road_km": 0.01, "settlement_km": 0.51, "node_score": 101.5 }, "geometry": { "type": "Point", "coordinates": [ -82.69254, 8.82119 ] } },
{ "type": "Feature", "properties": { "node_id": "PR38-N2", "area_id": "PR38", "area_name": "Tierras Altas - Renacimiento", "action": "PROTECT", "name": "Waterfall", "anchor_type": "viewpoint", "n_assets": 4, "assets": "Macho de Monte Cascadas; Waterfall; Macho del Monte; Canyon Macho de Monte", "n_natural": 2, "asset_mix": "viewpoint x2; attraction x1; visitor_infra x1", "road_km": 0.0, "settlement_km": 0.55, "node_score": 68.1 }, "geometry": { "type": "Point", "coordinates": [ -82.60635, 8.6853 ] } },
{ "type": "Feature", "properties": { "node_id": "PR38-N3", "area_id": "PR38", "area_name": "Tierras Altas - Renacimiento", "action": "PROTECT", "name": "Cerro Banco", "anchor_type": "peak", "n_assets": 1, "assets": "Cerro Banco", "n_natural": 1, "asset_mix": "peak x1", "road_km": 0.59, "settlement_km": 0.91, "node_score": 34.9 }, "geometry": { "type": "Point", "coordinates": [ -82.53143, 8.72016 ] } }
]
}
